{"type":"FeatureCollection","features":[{"type":"Feature","properties":{"shapeName":"Cross River","shapeISO":"NG-CR","shapeID":"27671186B81745654473385","shapeGroup":"NGA","shapeType":"ADM1"},"geometry":{"type":"Polygon","coordinates":[[[8.274,4.855],[8.332,4.822],[8.363,4.78],[8.396,4.775],[8.385,4.753],[8.404,4.733],[8.423,4.725],[8.437,4.736],[8.449,4.736],[8.461,4.755],[8.478,4.734],[8.463,4.724],[8.47,4.695],[8.485,4.69],[8.509,4.694],[8.512,4.704],[8.526,4.709],[8.522,4.734],[8.528,4.77],[8.551,4.801],[8.574,4.803],[8.631,4.827],[8.619,4.856],[8.604,4.883],[8.625,4.908],[8.654,4.925],[8.653,4.947],[8.667,4.958],[8.681,4.98],[8.698,4.988],[8.685,5.0],[8.721,5.057],[8.747,5.098],[8.825,5.189],[8.833,5.319],[8.837,5.38],[8.879,5.533],[8.911,5.564],[8.92,5.607],[8.88,5.657],[8.865,5.842],[8.944,5.907],[9.223,6.151],[9.374,6.329],[9.425,6.324],[9.456,6.369],[9.467,6.473],[9.471,6.525],[9.417,6.583],[9.386,6.613],[9.358,6.643],[9.318,6.694],[9.291,6.721],[9.216,6.706],[9.176,6.689],[9.136,6.68],[9.106,6.661],[9.048,6.644],[9.023,6.655],[8.992,6.692],[8.969,6.694],[8.977,6.714],[8.991,6.769],[8.923,6.825],[8.868,6.854],[8.79,6.883],[8.76,6.891],[8.704,6.896],[8.636,6.862],[8.601,6.856],[8.637,6.826],[8.637,6.798],[8.544,6.759],[8.496,6.754],[8.45,6.748],[8.42,6.757],[8.375,6.707],[8.321,6.679],[8.295,6.679],[8.305,6.651],[8.322,6.634],[8.322,6.618],[8.314,6.607],[8.33,6.592],[8.359,6.564],[8.371,6.548],[8.391,6.55],[8.399,6.532],[8.391,6.523],[8.416,6.519],[8.412,6.5],[8.409,6.478],[8.439,6.447],[8.442,6.433],[8.457,6.418],[8.443,6.405],[8.431,6.381],[8.399,6.354],[8.411,6.282],[8.411,6.246],[8.371,6.197],[8.339,6.153],[8.315,6.116],[8.298,6.091],[8.289,6.046],[8.274,5.999],[8.254,6.005],[8.23,6.013],[8.204,6.004],[8.153,5.967],[8.106,5.959],[8.065,5.944],[8.049,5.974],[8.049,5.995],[7.986,5.982],[7.979,5.966],[7.982,5.936],[8.0,5.913],[8.001,5.895],[7.987,5.899],[7.969,5.874],[7.959,5.843],[7.937,5.836],[7.942,5.805],[7.942,5.77],[7.917,5.753],[7.887,5.7],[7.915,5.655],[7.91,5.588],[7.907,5.56],[7.935,5.469],[7.956,5.437],[7.974,5.394],[7.988,5.363],[7.958,5.357],[7.912,5.361],[7.885,5.359],[7.904,5.339],[7.876,5.337],[7.842,5.341],[7.854,5.325],[7.865,5.315],[7.913,5.304],[7.938,5.254],[7.954,5.238],[7.97,5.22],[7.993,5.207],[8.01,5.238],[8.042,5.235],[8.067,5.182],[8.07,5.136],[8.1,5.063],[8.103,5.024],[8.135,4.973],[8.184,4.965],[8.209,4.942],[8.239,4.9],[8.263,4.877],[8.274,4.855]]]}},{"type":"Feature","properties":{"shapeName":"Abuja Federal Capital Territory","shapeISO":"NG-FC","shapeID":"27671186B76269877687363","shapeGroup":"NGA","shapeType":"ADM1"},"geometry":{"type":"Polygon","coordinates":[[[6.981,8.444],[7.036,8.44],[7.08,8.443],[7.086,8.433],[7.084,8.419],[7.124,8.423],[7.141,8.435],[7.14,8.443],[7.133,8.449],[7.27,8.464],[7.313,8.474],[7.365,8.488],[7.38,8.522],[7.396,8.538],[7.418,8.57],[7.443,8.593],[7.479,8.633],[7.496,8.654],[7.502,8.669],[7.592,8.835],[7.595,8.856],[7.589,9.129],[7.668,9.304],[7.724,9.329],[7.693,9.349],[7.679,9.368],[7.671,9.384],[7.667,9.401],[7.647,9.409],[7.614,9.406],[7.542,9.387],[7.509,9.355],[7.497,9.352],[7.474,9.35],[7.39,9.336],[7.379,9.336],[7.359,9.309],[7.357,9.31],[7.353,9.307],[7.331,9.269],[7.22,9.114],[7.015,9.269],[6.788,9.27],[6.783,8.849],[6.792,8.84],[6.79,8.79],[6.781,8.744],[6.78,8.58],[6.783,8.572],[6.785,8.458],[6.828,8.458],[6.941,8.459],[6.977,8.444],[6.981,8.444]]]}},{"type":"Feature","properties":{"shapeName":"Ogun","shapeISO":"NG-OG","shapeID":"27671186B83907961412659","shapeGroup":"NGA","shapeType":"ADM1"},"geometry":{"type":"Polygon","coordinates":[[[4.483,6.326],[4.505,6.32],[4.588,6.319],[4.576,6.381],[4.505,6.395],[4.479,6.405],[4.52,6.411],[4.556,6.443],[4.603,6.491],[4.588,6.532],[4.597,6.629],[4.565,6.634],[4.512,6.554],[4.475,6.545],[4.426,6.613],[4.376,6.663],[4.415,6.742],[4.458,6.788],[4.547,6.841],[4.564,6.996],[4.605,7.031],[4.534,7.024],[4.463,6.993],[4.401,6.981],[4.371,7.018],[4.369,7.059],[4.261,7.084],[4.198,7.049],[4.171,7.171],[4.085,7.132],[4.006,7.128],[3.939,7.084],[3.728,7.084],[3.781,7.121],[3.778,7.192],[3.762,7.292],[3.714,7.305],[3.702,7.41],[3.657,7.443],[3.525,7.421],[3.474,7.389],[3.471,7.439],[3.452,7.486],[3.393,7.456],[3.381,7.431],[3.386,7.401],[3.344,7.349],[3.296,7.318],[3.249,7.367],[3.155,7.378],[3.091,7.437],[3.069,7.476],[3.053,7.522],[3.007,7.556],[2.973,7.612],[3.001,7.662],[2.997,7.68],[2.999,7.694],[3.007,7.709],[3.022,7.744],[3.027,7.759],[3.025,7.79],[3.006,7.832],[2.985,7.846],[2.969,7.766],[2.944,7.724],[2.918,7.716],[2.917,7.758],[2.886,7.802],[2.888,7.89],[2.931,7.928],[2.878,7.926],[2.84,7.934],[2.794,7.942],[2.77,7.903],[2.712,7.852],[2.739,7.755],[2.747,7.15],[2.71,6.977],[2.735,6.914],[2.742,6.843],[2.724,6.794],[2.759,6.756],[2.784,6.732],[2.752,6.67],[2.734,6.591],[2.707,6.52],[2.711,6.486],[2.705,6.46],[2.773,6.454],[2.839,6.449],[2.876,6.47],[2.917,6.512],[2.927,6.505],[2.935,6.516],[3.06,6.502],[3.109,6.503],[3.155,6.508],[3.189,6.531],[3.199,6.546],[3.192,6.568],[3.212,6.595],[3.244,6.666],[3.263,6.7],[3.316,6.674],[3.354,6.657],[3.378,6.639],[3.452,6.641],[3.444,6.671],[3.459,6.674],[3.755,6.684],[3.983,6.683],[4.09,6.648],[4.071,6.632],[4.055,6.622],[4.07,6.576],[4.101,6.568],[4.128,6.574],[4.178,6.604],[4.239,6.562],[4.182,6.521],[4.173,6.484],[4.225,6.473],[4.251,6.449],[4.285,6.456],[4.354,6.451],[4.436,6.347],[4.483,6.326]]]}},{"type":"Feature","properties":{"shapeName":"Oyo","shapeISO":"NG-OY","shapeID":"27671186B56513237316251","shapeGroup":"NGA","shapeType":"ADM1"},"geometry":{"type":"Polygon","coordinates":[[[4.088,7.133],[4.081,7.14],[4.071,7.139],[4.083,7.149],[4.072,7.163],[4.079,7.191],[4.085,7.208],[4.105,7.237],[4.125,7.258],[4.128,7.288],[4.121,7.318],[4.12,7.335],[4.119,7.349],[4.132,7.358],[4.141,7.44],[4.134,7.465],[4.15,7.493],[4.154,7.569],[4.144,7.579],[4.122,7.61],[4.069,7.666],[4.074,7.682],[4.062,7.749],[4.071,7.76],[4.071,7.801],[4.09,7.86],[4.117,7.849],[4.174,7.861],[4.203,7.869],[4.191,7.91],[4.225,7.927],[4.236,7.956],[4.276,7.971],[4.307,7.944],[4.34,7.915],[4.36,7.883],[4.367,7.849],[4.39,7.879],[4.401,7.898],[4.429,7.889],[4.442,7.929],[4.496,7.943],[4.536,7.961],[4.563,8.009],[4.561,8.054],[4.533,8.072],[4.494,8.133],[4.48,8.211],[4.46,8.234],[4.418,8.273],[4.209,8.681],[4.195,8.816],[4.321,8.942],[4.326,8.995],[4.253,8.967],[3.991,9.048],[3.921,9.173],[3.795,9.165],[3.752,9.087],[3.691,8.997],[3.66,8.998],[3.617,9.003],[3.593,8.995],[3.601,8.963],[3.388,8.842],[3.197,8.796],[3.104,8.75],[2.942,8.638],[2.802,8.61],[2.753,8.536],[2.758,8.491],[2.729,8.437],[2.71,8.326],[2.751,8.218],[2.727,8.108],[2.695,7.882],[2.722,7.859],[2.749,7.887],[2.785,7.913],[2.794,7.942],[2.822,7.951],[2.844,7.934],[2.872,7.927],[2.906,7.93],[2.931,7.928],[2.907,7.913],[2.886,7.874],[2.886,7.825],[2.885,7.778],[2.917,7.758],[2.92,7.73],[2.92,7.708],[2.938,7.72],[2.956,7.737],[2.969,7.766],[2.983,7.816],[2.985,7.85],[2.992,7.854],[3.028,7.805],[3.025,7.79],[3.026,7.769],[3.03,7.759],[3.022,7.749],[3.018,7.731],[3.007,7.709],[3.001,7.7],[3.003,7.691],[2.994,7.682],[2.992,7.675],[3.001,7.662],[2.991,7.625],[2.973,7.606],[3.004,7.562],[3.022,7.546],[3.053,7.522],[3.074,7.502],[3.069,7.471],[3.083,7.439],[3.107,7.416],[3.155,7.378],[3.198,7.369],[3.257,7.363],[3.287,7.325],[3.319,7.314],[3.344,7.349],[3.376,7.387],[3.386,7.405],[3.381,7.426],[3.396,7.441],[3.393,7.456],[3.446,7.494],[3.467,7.471],[3.459,7.45],[3.481,7.407],[3.474,7.389],[3.498,7.395],[3.532,7.426],[3.604,7.443],[3.683,7.445],[3.702,7.41],[3.72,7.387],[3.715,7.302],[3.762,7.301],[3.764,7.23],[3.778,7.192],[3.794,7.139],[3.753,7.108],[3.725,7.088],[3.74,7.082],[3.939,7.084],[3.966,7.11],[4.019,7.125],[4.069,7.132],[4.088,7.133]]]}},{"type":"Feature","properties":{"shapeName":"Sokoto","shapeISO":"NG-SO","shapeID":"27671186B99510750195830","shapeGroup":"NGA","shapeType":"ADM1"},"geometry":{"type":"Polygon","coordinates":[[[4.126,13.25],[4.258,13.264],[4.392,13.197],[4.46,13.183],[4.493,13.162],[4.623,13.07],[4.726,13.054],[4.703,13.026],[4.678,12.988],[4.678,12.981],[4.666,12.973],[4.659,12.969],[4.661,12.959],[4.646,12.949],[4.694,12.933],[4.706,12.912],[4.759,12.874],[4.776,12.79],[4.744,12.737],[4.757,12.637],[4.812,12.504],[4.757,12.45],[4.751,12.389],[4.736,12.364],[4.703,12.38],[4.681,12.397],[4.63,12.433],[4.588,12.396],[4.593,12.347],[4.549,12.301],[4.549,12.251],[4.524,12.25],[4.562,12.23],[4.552,12.098],[4.582,11.997],[4.55,11.811],[4.535,11.785],[4.487,11.741],[4.417,11.709],[4.392,11.756],[4.378,11.763],[4.381,11.754],[4.385,11.746],[4.373,11.747],[4.375,11.715],[4.419,11.614],[4.483,11.532],[4.542,11.56],[4.556,11.587],[4.551,11.617],[4.586,11.655],[4.623,11.657],[4.667,11.668],[4.662,11.694],[4.673,11.683],[4.692,11.686],[4.708,11.692],[4.731,11.7],[4.738,11.71],[4.75,11.72],[4.767,11.72],[4.777,11.737],[4.791,11.741],[4.799,11.749],[4.815,11.766],[4.824,11.76],[4.833,11.752],[4.849,11.744],[4.87,11.734],[4.875,11.74],[4.889,11.75],[4.892,11.732],[4.894,11.711],[4.914,11.717],[4.934,11.722],[4.941,11.731],[4.926,11.814],[4.937,11.849],[4.867,11.933],[4.865,12.068],[4.866,12.136],[4.875,12.23],[4.967,12.308],[5.085,12.294],[5.128,12.286],[5.16,12.316],[5.182,12.322],[5.276,12.342],[5.334,12.346],[5.353,12.344],[5.393,12.329],[5.439,12.343],[5.47,12.253],[5.541,12.273],[5.692,12.322],[5.754,12.337],[5.765,12.41],[5.728,12.551],[5.677,12.632],[5.675,12.735],[5.588,12.804],[5.682,12.865],[5.813,12.84],[5.852,12.81],[5.951,12.765],[5.986,12.755],[6.03,12.795],[6.044,12.938],[6.057,12.985],[6.102,13.06],[6.261,13.136],[6.327,13.18],[6.369,13.149],[6.392,13.13],[6.437,13.153],[6.45,13.146],[6.459,13.139],[6.461,13.125],[6.452,13.126],[6.463,13.117],[6.516,13.124],[6.522,13.108],[6.52,13.09],[6.519,13.077],[6.543,13.044],[6.574,13.025],[6.683,13.107],[6.743,13.118],[6.748,13.249],[6.713,13.311],[6.559,13.478],[6.403,13.611],[6.233,13.674],[6.116,13.664],[5.923,13.736],[5.838,13.761],[5.705,13.811],[5.693,13.815],[5.53,13.886],[5.333,13.81],[5.205,13.736],[5.006,13.736],[4.874,13.781],[4.708,13.759],[4.542,13.702],[4.394,13.653],[4.349,13.607],[4.232,13.499],[4.125,13.451],[4.126,13.287],[4.126,13.25]]]}},{"type":"Feature","properties":{"shapeName":"Zamfara","shapeISO":"NG-ZA","shapeID":"27671186B21163522287660","shapeGroup":"NGA","shapeType":"ADM1"},"geometry":{"type":"Polygon","coordinates":[[[4.941,11.731],[4.964,11.739],[4.988,11.745],[5.007,11.75],[5.028,11.731],[5.044,11.724],[5.065,11.711],[5.125,11.73],[5.14,11.73],[5.157,11.737],[5.17,11.742],[5.183,11.767],[5.177,11.788],[5.195,11.784],[5.221,11.766],[5.252,11.774],[5.284,11.772],[5.3,11.781],[5.318,11.778],[5.319,11.773],[5.353,11.73],[5.362,11.71],[5.394,11.711],[5.422,11.709],[5.46,11.684],[5.471,11.664],[5.514,11.665],[5.551,11.673],[5.639,11.663],[5.761,11.687],[5.829,11.625],[5.821,11.566],[5.816,11.542],[5.827,11.444],[5.934,11.437],[6.01,11.463],[6.08,11.388],[6.204,11.384],[6.136,11.295],[6.106,11.183],[6.055,11.202],[6.048,11.21],[6.017,11.118],[6.066,11.055],[6.196,11.018],[6.28,10.964],[6.293,10.985],[6.32,11.01],[6.322,11.021],[6.341,11.021],[6.372,11.025],[6.392,11.034],[6.419,11.028],[6.437,11.008],[6.533,11.048],[6.578,11.025],[6.6,11.045],[6.643,11.051],[6.662,11.055],[6.677,11.057],[6.701,11.097],[6.691,11.121],[6.693,11.216],[6.761,11.267],[6.771,11.32],[6.823,11.311],[6.84,11.319],[6.878,11.366],[6.907,11.475],[6.867,11.578],[6.866,11.663],[6.885,11.735],[6.886,11.761],[6.902,11.789],[6.917,11.786],[6.944,11.798],[6.977,11.809],[6.991,11.811],[7.021,11.811],[7.063,11.804],[7.146,11.866],[7.165,11.909],[7.193,11.901],[7.226,11.914],[7.224,11.952],[7.21,11.976],[7.197,11.993],[7.18,12.008],[7.154,12.026],[7.143,12.064],[7.137,12.078],[7.128,12.124],[7.15,12.232],[7.075,12.375],[7.051,12.54],[7.047,12.638],[7.043,12.72],[7.056,12.823],[7.065,12.877],[7.066,12.908],[7.06,12.918],[7.051,12.942],[7.057,12.955],[7.049,12.987],[6.793,13.132],[6.657,13.093],[6.543,13.044],[6.527,13.085],[6.519,13.113],[6.463,13.117],[6.456,13.124],[6.453,13.139],[6.437,13.153],[6.362,13.144],[6.3,13.182],[6.102,13.06],[6.049,12.948],[6.034,12.784],[5.951,12.765],[5.836,12.815],[5.635,12.883],[5.675,12.735],[5.723,12.621],[5.773,12.383],[5.692,12.322],[5.476,12.252],[5.422,12.353],[5.353,12.344],[5.312,12.356],[5.177,12.319],[5.128,12.286],[4.998,12.301],[4.873,12.208],[4.865,12.068],[4.968,11.876],[4.923,11.795],[4.941,11.731]]]}},{"type":"Feature","properties":{"shapeName":"Lagos","shapeISO":"NG-LA","shapeID":"27671186B19119389308001","shapeGroup":"NGA","shapeType":"ADM1"},"geometry":{"type":"Polygon","coordinates":[[[2.705,6.46],[2.699,6.459],[2.699,6.432],[2.701,6.412],[2.7,6.375],[2.706,6.375],[2.819,6.39],[2.925,6.395],[2.992,6.395],[3.007,6.397],[3.037,6.397],[3.181,6.402],[3.215,6.402],[3.258,6.403],[3.335,6.401],[3.36,6.398],[3.402,6.399],[3.405,6.412],[3.409,6.416],[3.43,6.422],[3.43,6.424],[3.44,6.419],[3.461,6.42],[3.468,6.417],[3.477,6.418],[3.482,6.419],[3.492,6.418],[3.497,6.42],[3.576,6.421],[3.672,6.422],[3.715,6.424],[3.805,6.435],[3.86,6.436],[3.872,6.434],[3.896,6.434],[3.976,6.426],[4.077,6.411],[4.085,6.408],[4.192,6.388],[4.259,6.379],[4.293,6.377],[4.351,6.37],[4.36,6.368],[4.367,6.407],[4.369,6.438],[4.354,6.451],[4.328,6.448],[4.321,6.451],[4.312,6.445],[4.291,6.45],[4.285,6.456],[4.276,6.456],[4.266,6.452],[4.264,6.445],[4.26,6.444],[4.251,6.449],[4.248,6.455],[4.238,6.456],[4.235,6.459],[4.231,6.469],[4.225,6.473],[4.205,6.472],[4.202,6.475],[4.196,6.476],[4.183,6.483],[4.173,6.484],[4.169,6.488],[4.168,6.499],[4.164,6.507],[4.174,6.512],[4.182,6.521],[4.198,6.529],[4.209,6.53],[4.226,6.54],[4.233,6.547],[4.239,6.562],[4.241,6.572],[4.222,6.596],[4.214,6.599],[4.193,6.595],[4.178,6.604],[4.163,6.595],[4.156,6.589],[4.144,6.582],[4.132,6.58],[4.128,6.574],[4.121,6.57],[4.117,6.556],[4.11,6.554],[4.101,6.558],[4.101,6.568],[4.099,6.572],[4.09,6.57],[4.072,6.571],[4.07,6.573],[4.07,6.576],[4.061,6.585],[4.059,6.596],[4.058,6.609],[4.054,6.615],[4.055,6.622],[4.058,6.621],[4.062,6.629],[4.059,6.634],[4.063,6.636],[4.071,6.632],[4.076,6.633],[4.079,6.636],[4.083,6.636],[4.093,6.646],[4.09,6.648],[4.096,6.653],[4.094,6.666],[4.097,6.672],[4.091,6.68],[3.983,6.683],[3.979,6.692],[3.912,6.681],[3.862,6.683],[3.757,6.683],[3.755,6.684],[3.696,6.684],[3.691,6.682],[3.685,6.683],[3.461,6.683],[3.459,6.674],[3.443,6.686],[3.439,6.683],[3.44,6.675],[3.443,6.674],[3.444,6.671],[3.442,6.669],[3.442,6.663],[3.448,6.662],[3.448,6.655],[3.452,6.641],[3.393,6.638],[3.391,6.64],[3.382,6.639],[3.384,6.641],[3.378,6.639],[3.371,6.642],[3.364,6.649],[3.353,6.652],[3.352,6.656],[3.354,6.657],[3.348,6.661],[3.345,6.673],[3.328,6.672],[3.317,6.676],[3.316,6.674],[3.312,6.675],[3.307,6.679],[3.285,6.687],[3.272,6.698],[3.263,6.7],[3.258,6.697],[3.256,6.688],[3.257,6.684],[3.254,6.679],[3.244,6.666],[3.238,6.661],[3.238,6.62],[3.227,6.608],[3.225,6.602],[3.212,6.595],[3.205,6.589],[3.204,6.586],[3.193,6.578],[3.192,6.57],[3.192,6.568],[3.194,6.569],[3.195,6.567],[3.198,6.56],[3.2,6.55],[3.199,6.546],[3.201,6.544],[3.2,6.536],[3.201,6.533],[3.196,6.53],[3.189,6.531],[3.184,6.527],[3.175,6.515],[3.163,6.511],[3.16,6.508],[3.155,6.508],[3.151,6.506],[3.146,6.506],[3.142,6.508],[3.116,6.505],[3.109,6.503],[3.103,6.5],[3.094,6.5],[3.077,6.492],[3.072,6.497],[3.06,6.502],[2.954,6.502],[2.954,6.513],[2.95,6.514],[2.938,6.513],[2.935,6.516],[2.931,6.512],[2.935,6.51],[2.935,6.509],[2.93,6.509],[2.927,6.505],[2.925,6.508],[2.926,6.512],[2.924,6.513],[2.919,6.513],[2.917,6.512],[2.886,6.511],[2.889,6.487],[2.889,6.481],[2.884,6.474],[2.876,6.47],[2.865,6.469],[2.86,6.467],[2.858,6.463],[2.858,6.449],[2.839,6.449],[2.831,6.445],[2.818,6.455],[2.794,6.462],[2.782,6.461],[2.773,6.454],[2.759,6.453],[2.738,6.453],[2.73,6.46],[2.723,6.462],[2.705,6.46]]]}},{"type":"Feature","properties":{"shapeName":"Akwa Ibom","shapeISO":"NG-AK","shapeID":"27671186B25346211366833","shapeGroup":"NGA","shapeType":"ADM1"},"geometry":{"type":"Polygon","coordinates":[[[7.88,5.367],[7.884,5.385],[7.868,5.408],[7.861,5.421],[7.838,5.422],[7.809,5.428],[7.789,5.444],[7.765,5.483],[7.76,5.505],[7.749,5.516],[7.73,5.517],[7.711,5.512],[7.705,5.518],[7.692,5.512],[7.693,5.5],[7.705,5.483],[7.7,5.445],[7.691,5.437],[7.668,5.447],[7.657,5.446],[7.635,5.421],[7.622,5.388],[7.625,5.365],[7.653,5.369],[7.67,5.352],[7.652,5.328],[7.645,5.324],[7.622,5.318],[7.606,5.326],[7.592,5.319],[7.579,5.323],[7.566,5.321],[7.556,5.306],[7.544,5.31],[7.535,5.304],[7.547,5.287],[7.552,5.269],[7.54,5.194],[7.533,5.176],[7.534,5.14],[7.535,5.109],[7.54,5.069],[7.529,5.058],[7.519,5.053],[7.533,5.042],[7.52,5.037],[7.51,5.035],[7.512,5.026],[7.492,5.008],[7.478,4.998],[7.46,4.978],[7.474,4.965],[7.491,4.959],[7.487,4.938],[7.477,4.908],[7.481,4.883],[7.491,4.864],[7.499,4.855],[7.501,4.84],[7.495,4.828],[7.512,4.793],[7.532,4.768],[7.542,4.73],[7.535,4.7],[7.524,4.684],[7.526,4.664],[7.523,4.631],[7.532,4.604],[7.545,4.569],[7.528,4.55],[7.552,4.52],[7.571,4.512],[7.597,4.497],[7.602,4.478],[7.614,4.469],[7.667,4.495],[7.694,4.499],[7.84,4.524],[8.001,4.538],[8.116,4.545],[8.248,4.535],[8.27,4.538],[8.292,4.537],[8.293,4.546],[8.335,4.59],[8.341,4.612],[8.326,4.665],[8.324,4.71],[8.316,4.736],[8.313,4.762],[8.3,4.779],[8.31,4.804],[8.281,4.837],[8.263,4.877],[8.245,4.887],[8.236,4.919],[8.209,4.942],[8.187,4.959],[8.159,4.97],[8.135,4.973],[8.122,4.994],[8.1,5.033],[8.1,5.063],[8.095,5.115],[8.065,5.145],[8.067,5.182],[8.055,5.217],[8.028,5.244],[8.01,5.238],[8.003,5.219],[7.984,5.206],[7.97,5.22],[7.962,5.236],[7.948,5.242],[7.938,5.254],[7.93,5.285],[7.892,5.317],[7.865,5.315],[7.858,5.319],[7.843,5.335],[7.842,5.341],[7.868,5.343],[7.897,5.333],[7.904,5.339],[7.903,5.343],[7.881,5.363],[7.88,5.367]]]}},{"type":"Feature","properties":{"shapeName":"Bayelsa","shapeISO":"NG-BY","shapeID":"27671186B47021609715037","shapeGroup":"NGA","shapeType":"ADM1"},"geometry":{"type":"Polygon","coordinates":[[[5.448,5.134],[5.432,5.139],[5.402,5.137],[5.375,5.126],[5.39,5.096],[5.442,4.976],[5.436,4.96],[5.444,4.923],[5.527,4.772],[5.542,4.73],[5.659,4.567],[5.7,4.517],[5.843,4.402],[5.964,4.334],[5.977,4.312],[6.058,4.288],[6.084,4.279],[6.088,4.27],[6.137,4.275],[6.222,4.284],[6.215,4.306],[6.221,4.357],[6.237,4.385],[6.239,4.4],[6.247,4.4],[6.247,4.359],[6.255,4.378],[6.282,4.375],[6.26,4.358],[6.242,4.319],[6.234,4.299],[6.255,4.29],[6.412,4.306],[6.431,4.31],[6.453,4.299],[6.465,4.315],[6.494,4.322],[6.548,4.344],[6.52,4.361],[6.512,4.38],[6.525,4.47],[6.534,4.488],[6.55,4.51],[6.545,4.533],[6.566,4.554],[6.551,4.558],[6.54,4.577],[6.549,4.586],[6.535,4.609],[6.515,4.633],[6.547,4.682],[6.562,4.692],[6.568,4.702],[6.574,4.709],[6.593,4.722],[6.598,4.753],[6.553,4.759],[6.527,4.753],[6.499,4.733],[6.461,4.713],[6.446,4.73],[6.444,4.761],[6.43,4.766],[6.402,4.827],[6.398,4.864],[6.407,4.887],[6.421,4.907],[6.434,4.93],[6.44,4.955],[6.41,4.991],[6.426,5.029],[6.439,5.053],[6.46,5.098],[6.486,5.153],[6.511,5.172],[6.535,5.187],[6.553,5.19],[6.549,5.213],[6.567,5.237],[6.537,5.265],[6.531,5.285],[6.563,5.32],[6.57,5.372],[6.54,5.381],[6.496,5.37],[6.493,5.328],[6.49,5.324],[6.45,5.328],[6.426,5.311],[6.38,5.309],[6.348,5.32],[6.334,5.318],[6.306,5.303],[6.285,5.279],[6.284,5.267],[6.293,5.239],[6.279,5.229],[6.234,5.238],[6.202,5.232],[6.194,5.217],[6.202,5.179],[6.191,5.159],[6.166,5.161],[6.15,5.141],[6.13,5.129],[6.098,5.15],[6.07,5.141],[6.064,5.112],[6.055,5.097],[6.027,5.096],[5.964,5.149],[5.946,5.164],[5.928,5.161],[5.922,5.135],[5.916,5.132],[5.909,5.105],[5.885,5.1],[5.881,5.11],[5.878,5.091],[5.868,5.068],[5.863,5.074],[5.853,5.075],[5.848,5.067],[5.84,5.075],[5.835,5.082],[5.817,5.077],[5.809,5.086],[5.791,5.086],[5.79,5.079],[5.78,5.065],[5.776,5.057],[5.764,5.064],[5.752,5.054],[5.743,5.056],[5.731,5.054],[5.71,5.024],[5.691,5.024],[5.667,5.028],[5.664,5.015],[5.648,5.012],[5.633,5.018],[5.62,5.035],[5.591,5.043],[5.585,5.055],[5.533,5.063],[5.512,5.088],[5.476,5.091],[5.465,5.098],[5.466,5.122],[5.455,5.127],[5.448,5.134]]]}},{"type":"Feature","properties":{"shapeName":"Ondo","shapeISO":"NG-ON","shapeID":"27671186B41407594687181","shapeGroup":"NGA","shapeType":"ADM1"},"geometry":{"type":"Polygon","coordinates":[[[4.483,6.326],[4.692,6.161],[4.804,6.064],[4.87,6.005],[4.977,5.888],[4.984,5.899],[5.076,6.078],[5.119,6.15],[5.133,6.172],[5.132,6.181],[5.129,6.19],[5.122,6.206],[5.113,6.195],[5.1,6.202],[5.089,6.201],[5.082,6.218],[5.078,6.22],[5.073,6.24],[5.05,6.251],[5.03,6.279],[5.013,6.302],[5.03,6.323],[5.029,6.342],[5.032,6.365],[5.047,6.372],[5.066,6.377],[5.099,6.397],[5.104,6.421],[5.108,6.435],[5.114,6.453],[5.134,6.473],[5.145,6.489],[5.154,6.501],[5.155,6.519],[5.162,6.546],[5.162,6.559],[5.147,6.57],[5.132,6.586],[5.114,6.621],[5.118,6.684],[5.126,6.702],[5.167,6.758],[5.203,6.783],[5.255,6.883],[5.555,6.883],[5.572,6.855],[5.554,6.836],[5.544,6.813],[5.561,6.772],[5.563,6.741],[5.577,6.704],[5.605,6.729],[5.64,6.747],[5.703,6.736],[5.758,6.784],[5.778,6.818],[5.771,6.847],[5.787,6.871],[5.798,6.915],[5.786,6.968],[5.794,7.005],[5.796,7.024],[5.816,7.072],[5.85,7.092],[5.843,7.11],[5.86,7.126],[5.868,7.147],[5.882,7.176],[5.884,7.193],[5.904,7.221],[5.896,7.253],[5.907,7.275],[5.916,7.319],[5.919,7.337],[5.979,7.348],[5.978,7.368],[5.98,7.391],[5.975,7.404],[5.971,7.419],[5.987,7.442],[5.971,7.46],[5.948,7.487],[5.954,7.515],[5.967,7.516],[5.995,7.527],[5.997,7.56],[5.972,7.598],[5.936,7.667],[5.921,7.716],[5.931,7.745],[5.89,7.744],[5.828,7.734],[5.801,7.733],[5.768,7.737],[5.695,7.672],[5.681,7.624],[5.655,7.629],[5.618,7.564],[5.61,7.484],[5.588,7.432],[5.547,7.374],[5.521,7.333],[5.473,7.302],[5.405,7.29],[5.354,7.31],[5.347,7.381],[5.32,7.441],[5.28,7.436],[5.217,7.434],[5.188,7.441],[5.127,7.446],[5.065,7.46],[5.009,7.426],[5.006,7.392],[4.957,7.374],[4.909,7.373],[4.814,7.372],[4.755,7.361],[4.743,7.243],[4.747,7.223],[4.721,7.195],[4.703,7.162],[4.668,7.159],[4.673,7.14],[4.627,7.104],[4.61,7.031],[4.573,7.005],[4.556,6.959],[4.547,6.841],[4.506,6.818],[4.449,6.78],[4.417,6.746],[4.39,6.716],[4.376,6.663],[4.387,6.63],[4.454,6.607],[4.465,6.577],[4.497,6.505],[4.512,6.554],[4.532,6.59],[4.567,6.637],[4.592,6.637],[4.601,6.609],[4.588,6.532],[4.606,6.499],[4.564,6.499],[4.56,6.451],[4.535,6.408],[4.52,6.411],[4.504,6.416],[4.476,6.402],[4.482,6.387],[4.546,6.388],[4.576,6.381],[4.598,6.347],[4.578,6.308],[4.522,6.313],[4.503,6.327],[4.483,6.326]]]}},{"type":"Feature","properties":{"shapeName":"Delta","shapeISO":"NG-DE","shapeID":"27671186B69086015704361","shapeGroup":"NGA","shapeType":"ADM1"},"geometry":{"type":"Polygon","coordinates":[[[6.485,5.379],[6.509,5.426],[6.538,5.476],[6.569,5.553],[6.604,5.615],[6.6,5.679],[6.644,5.747],[6.658,5.84],[6.7,5.929],[6.725,6.012],[6.703,6.051],[6.722,6.098],[6.769,6.168],[6.731,6.239],[6.713,6.353],[6.682,6.456],[6.646,6.489],[6.586,6.498],[6.52,6.483],[6.466,6.441],[6.413,6.396],[6.35,6.379],[6.29,6.362],[6.236,6.304],[6.189,6.309],[6.127,6.356],[6.086,6.289],[6.116,6.2],[6.169,6.083],[6.245,6.054],[6.257,6.017],[6.229,5.936],[6.18,5.882],[6.094,5.794],[6.04,5.765],[5.959,5.751],[5.907,5.781],[5.906,5.826],[5.835,5.951],[5.795,5.98],[5.657,6.033],[5.594,6.018],[5.537,5.99],[5.523,6.013],[5.513,6.035],[5.491,6.039],[5.456,6.022],[5.43,6.032],[5.433,6.01],[5.413,6.021],[5.344,6.017],[5.323,6.005],[5.34,5.983],[5.341,5.956],[5.276,5.907],[5.254,5.955],[5.263,6.031],[5.24,6.062],[5.234,6.112],[5.223,6.144],[5.206,6.148],[5.19,6.152],[5.182,6.157],[5.164,6.146],[5.146,6.142],[5.133,6.165],[5.101,6.125],[5.018,5.951],[4.977,5.888],[5.068,5.767],[5.084,5.718],[5.17,5.594],[5.228,5.619],[5.374,5.599],[5.445,5.654],[5.494,5.608],[5.418,5.64],[5.394,5.588],[5.327,5.588],[5.207,5.599],[5.164,5.555],[5.24,5.44],[5.379,5.39],[5.5,5.481],[5.556,5.519],[5.6,5.513],[5.531,5.505],[5.514,5.426],[5.513,5.399],[5.352,5.363],[5.32,5.355],[5.373,5.146],[5.444,5.147],[5.462,5.125],[5.468,5.093],[5.524,5.069],[5.586,5.048],[5.625,5.026],[5.662,5.013],[5.676,5.03],[5.719,5.031],[5.749,5.053],[5.773,5.061],[5.788,5.073],[5.804,5.082],[5.82,5.075],[5.841,5.068],[5.857,5.077],[5.872,5.081],[5.883,5.102],[5.915,5.108],[5.927,5.14],[5.961,5.157],[6.044,5.096],[6.063,5.123],[6.121,5.134],[6.155,5.152],[6.201,5.17],[6.196,5.223],[6.259,5.228],[6.292,5.245],[6.3,5.299],[6.339,5.32],[6.409,5.305],[6.473,5.322],[6.503,5.339],[6.485,5.379]]]}},{"type":"Feature","properties":{"shapeName":"Rivers","shapeISO":"NG-RI","shapeID":"27671186B95832466049157","shapeGroup":"NGA","shapeType":"ADM1"},"geometry":{"type":"Polygon","coordinates":[[[7.495,4.828],[7.474,4.837],[7.447,4.845],[7.416,4.867],[7.362,4.865],[7.32,4.88],[7.264,4.869],[7.225,4.858],[7.184,4.875],[7.147,4.89],[7.144,4.913],[7.169,4.945],[7.228,4.971],[7.252,5.033],[7.256,5.077],[7.279,5.117],[7.293,5.173],[7.275,5.21],[7.256,5.213],[7.232,5.195],[7.174,5.21],[7.104,5.222],[7.062,5.24],[7.04,5.25],[6.998,5.239],[6.96,5.232],[6.888,5.226],[6.849,5.25],[6.804,5.269],[6.758,5.343],[6.763,5.41],[6.744,5.449],[6.75,5.476],[6.733,5.494],[6.639,5.493],[6.626,5.684],[6.606,5.67],[6.604,5.615],[6.585,5.562],[6.543,5.549],[6.535,5.459],[6.509,5.426],[6.477,5.404],[6.562,5.379],[6.563,5.32],[6.533,5.274],[6.567,5.237],[6.559,5.198],[6.535,5.187],[6.493,5.163],[6.46,5.098],[6.43,5.039],[6.41,4.991],[6.441,4.943],[6.421,4.907],[6.401,4.875],[6.402,4.827],[6.445,4.776],[6.446,4.73],[6.478,4.714],[6.527,4.753],[6.579,4.758],[6.593,4.722],[6.573,4.702],[6.562,4.692],[6.512,4.643],[6.535,4.609],[6.546,4.581],[6.551,4.558],[6.56,4.541],[6.55,4.51],[6.532,4.479],[6.512,4.38],[6.545,4.355],[6.62,4.326],[6.647,4.326],[6.694,4.389],[6.689,4.422],[6.695,4.461],[6.692,4.494],[6.695,4.534],[6.721,4.599],[6.727,4.609],[6.732,4.572],[6.717,4.546],[6.701,4.511],[6.704,4.465],[6.716,4.417],[6.714,4.384],[6.738,4.346],[6.875,4.364],[6.858,4.398],[6.991,4.37],[7.019,4.376],[7.017,4.409],[6.992,4.452],[6.985,4.477],[6.977,4.508],[6.975,4.597],[6.994,4.59],[7.009,4.531],[7.022,4.453],[7.034,4.438],[7.075,4.446],[7.159,4.464],[7.177,4.529],[7.176,4.584],[7.15,4.641],[7.096,4.668],[7.079,4.703],[7.088,4.719],[7.102,4.679],[7.153,4.66],[7.207,4.565],[7.189,4.476],[7.167,4.448],[7.137,4.375],[7.141,4.383],[7.204,4.379],[7.329,4.417],[7.333,4.444],[7.447,4.44],[7.58,4.45],[7.59,4.463],[7.589,4.49],[7.543,4.515],[7.521,4.555],[7.544,4.58],[7.525,4.613],[7.521,4.662],[7.522,4.689],[7.535,4.714],[7.532,4.768],[7.511,4.807],[7.495,4.828]]]}},{"type":"Feature","properties":{"shapeName":"Kwara","shapeISO":"NG-KW","shapeID":"27671186B2031248555853","shapeGroup":"NGA","shapeType":"ADM1"},"geometry":{"type":"Polygon","coordinates":[[[4.569,8.055],[4.622,8.076],[4.632,8.061],[4.648,8.054],[4.674,8.046],[4.692,8.056],[4.712,8.06],[4.755,8.065],[4.805,8.064],[4.83,8.055],[4.855,8.086],[4.878,8.091],[4.927,8.08],[4.961,8.052],[4.971,8.033],[4.973,8.021],[4.983,8.032],[5.01,8.05],[5.032,8.068],[5.05,8.065],[5.062,8.038],[5.084,8.024],[5.182,8.036],[5.196,8.018],[5.257,8.018],[5.318,8.008],[5.361,8.039],[5.359,8.074],[5.371,8.096],[5.449,8.106],[5.504,8.124],[5.537,8.156],[5.537,8.206],[5.51,8.208],[5.478,8.205],[5.432,8.225],[5.422,8.251],[5.421,8.274],[5.397,8.292],[5.363,8.273],[5.353,8.31],[5.325,8.334],[5.327,8.349],[5.412,8.452],[5.466,8.492],[5.496,8.529],[5.513,8.539],[5.554,8.513],[5.643,8.463],[5.749,8.438],[5.819,8.427],[5.912,8.424],[5.979,8.405],[6.041,8.393],[6.097,8.414],[6.133,8.568],[6.17,8.663],[6.185,8.73],[6.132,8.752],[6.033,8.759],[5.975,8.757],[5.901,8.75],[5.775,8.753],[5.713,8.829],[5.642,8.835],[5.601,8.877],[5.54,8.931],[5.485,8.945],[5.458,8.969],[5.391,8.983],[5.348,8.998],[5.308,9.0],[5.272,9.015],[5.209,9.035],[5.159,9.107],[5.048,9.188],[4.997,9.207],[4.923,9.176],[4.877,9.161],[4.857,9.149],[4.815,9.132],[4.785,9.135],[4.765,9.15],[4.757,9.224],[4.714,9.278],[4.617,9.33],[4.501,9.44],[4.351,9.588],[4.171,9.82],[4.128,9.852],[4.124,9.875],[4.095,9.867],[4.078,9.854],[4.052,9.863],[4.022,9.857],[4.011,9.899],[3.98,9.907],[3.946,9.908],[3.943,9.932],[3.969,9.942],[3.959,9.96],[3.936,9.973],[3.954,9.983],[3.921,10.0],[3.887,10.004],[3.89,10.031],[3.851,10.055],[3.818,10.067],[3.785,10.062],[3.788,10.034],[3.772,10.041],[3.75,10.068],[3.734,10.08],[3.731,10.068],[3.712,10.108],[3.676,10.103],[3.525,9.844],[3.477,9.857],[3.341,9.808],[3.331,9.756],[3.286,9.636],[3.171,9.496],[3.145,9.419],[3.166,9.303],[2.987,9.061],[2.814,9.065],[2.783,9.017],[2.756,8.575],[2.921,8.612],[3.051,8.729],[3.184,8.812],[3.282,8.804],[3.6,8.957],[3.594,8.989],[3.608,8.999],[3.654,9.001],[3.687,9.003],[3.743,9.047],[3.771,9.147],[3.863,9.188],[3.972,9.078],[4.21,8.97],[4.316,8.998],[4.335,8.958],[4.221,8.861],[4.213,8.683],[4.392,8.304],[4.441,8.251],[4.472,8.216],[4.494,8.167],[4.506,8.092],[4.569,8.055]]]}},{"type":"Feature","properties":{"shapeName":"Kogi","shapeISO":"NG-KO","shapeID":"27671186B96047513549152","shapeGroup":"NGA","shapeType":"ADM1"},"geometry":{"type":"Polygon","coordinates":[[[6.828,8.458],[6.825,8.404],[6.828,8.379],[6.791,8.331],[6.76,8.306],[6.763,8.282],[6.73,8.284],[6.714,8.23],[6.688,8.202],[6.641,8.255],[6.599,8.324],[6.527,8.376],[6.425,8.549],[6.38,8.649],[6.303,8.728],[6.17,8.663],[6.125,8.556],[6.06,8.394],[5.979,8.405],[5.849,8.422],[5.783,8.428],[5.643,8.463],[5.544,8.523],[5.503,8.534],[5.466,8.492],[5.397,8.438],[5.322,8.341],[5.353,8.31],[5.372,8.274],[5.418,8.284],[5.422,8.251],[5.458,8.206],[5.501,8.215],[5.537,8.206],[5.533,8.147],[5.498,8.111],[5.507,8.037],[5.516,8.022],[5.577,8.071],[5.66,8.07],[5.647,8.041],[5.668,8.002],[5.648,7.986],[5.627,7.957],[5.599,7.958],[5.609,7.911],[5.643,7.829],[5.729,7.828],[5.768,7.788],[5.801,7.733],[5.843,7.729],[5.929,7.747],[5.921,7.716],[5.938,7.649],[5.982,7.583],[6.013,7.533],[6.029,7.565],[6.13,7.565],[6.167,7.545],[6.115,7.499],[6.11,7.457],[6.143,7.45],[6.18,7.43],[6.209,7.45],[6.259,7.479],[6.357,7.415],[6.428,7.411],[6.427,7.382],[6.443,7.357],[6.486,7.342],[6.5,7.311],[6.511,7.267],[6.57,7.275],[6.683,7.23],[6.716,7.136],[6.677,7.034],[6.646,6.885],[6.62,6.8],[6.626,6.731],[6.653,6.634],[6.672,6.568],[6.808,6.58],[6.806,6.703],[6.878,6.761],[6.925,6.793],[6.952,6.828],[6.99,6.833],[6.991,6.785],[7.042,6.783],[7.093,6.819],[7.134,6.855],[7.176,6.896],[7.218,6.925],[7.241,6.971],[7.327,7.024],[7.387,7.086],[7.442,7.096],[7.47,7.087],[7.526,7.036],[7.593,7.018],[7.604,7.053],[7.63,7.125],[7.672,7.174],[7.71,7.183],[7.779,7.209],[7.794,7.269],[7.803,7.364],[7.792,7.41],[7.764,7.434],[7.756,7.53],[7.732,7.613],[7.752,7.64],[7.745,7.769],[7.664,7.935],[7.583,8.038],[7.446,8.047],[7.289,8.022],[7.073,7.943],[6.964,7.879],[6.961,7.943],[6.973,8.02],[6.983,8.116],[6.98,8.211],[6.953,8.284],[6.942,8.322],[6.97,8.391],[6.828,8.458]]]}},{"type":"Feature","properties":{"shapeName":"Benue","shapeISO":"NG-BE","shapeID":"27671186B36221103315467","shapeGroup":"NGA","shapeType":"ADM1"},"geometry":{"type":"Polygon","coordinates":[[[9.467,6.401],[9.594,6.498],[9.622,6.664],[9.649,6.799],[9.689,6.986],[9.762,7.101],[9.835,7.217],[9.828,7.257],[9.865,7.363],[9.885,7.508],[9.816,7.598],[9.702,7.71],[9.602,7.83],[9.387,7.845],[9.225,7.818],[9.12,7.793],[9.14,7.849],[9.172,7.887],[9.183,7.896],[9.133,7.991],[9.057,8.078],[8.911,8.056],[8.637,8.116],[8.524,8.157],[8.427,8.112],[8.363,8.017],[8.344,7.973],[8.374,7.899],[8.392,7.879],[8.406,7.83],[8.416,7.8],[8.419,7.778],[8.403,7.766],[8.275,7.815],[8.18,7.853],[8.095,7.869],[7.973,7.939],[7.867,7.986],[7.697,8.014],[7.664,7.906],[7.745,7.769],[7.752,7.648],[7.724,7.62],[7.736,7.599],[7.756,7.53],[7.761,7.452],[7.776,7.419],[7.799,7.401],[7.803,7.364],[7.801,7.293],[7.79,7.217],[7.768,7.206],[7.71,7.183],[7.682,7.185],[7.635,7.147],[7.619,7.108],[7.604,7.053],[7.601,7.016],[7.544,7.04],[7.549,6.991],[7.571,6.94],[7.636,6.904],[7.692,6.852],[7.719,6.872],[7.763,6.88],[7.819,6.892],[7.864,6.88],[7.888,6.854],[7.89,6.785],[7.895,6.774],[7.875,6.741],[7.831,6.662],[7.818,6.638],[7.834,6.619],[7.856,6.581],[7.925,6.544],[7.954,6.552],[7.973,6.597],[7.987,6.633],[7.975,6.69],[8.009,6.725],[8.075,6.714],[8.104,6.712],[8.136,6.716],[8.153,6.755],[8.213,6.776],[8.229,6.8],[8.25,6.776],[8.266,6.742],[8.269,6.728],[8.28,6.715],[8.279,6.698],[8.307,6.678],[8.361,6.693],[8.408,6.753],[8.444,6.755],[8.48,6.751],[8.535,6.76],[8.621,6.781],[8.642,6.819],[8.602,6.85],[8.624,6.863],[8.665,6.868],[8.741,6.893],[8.786,6.883],[8.848,6.866],[8.897,6.838],[8.974,6.789],[8.995,6.754],[8.968,6.697],[8.985,6.694],[9.018,6.662],[9.035,6.647],[9.085,6.652],[9.123,6.673],[9.159,6.684],[9.193,6.694],[9.28,6.719],[9.304,6.718],[9.348,6.655],[9.382,6.618],[9.405,6.595],[9.45,6.539],[9.474,6.5],[9.467,6.401]]]}},{"type":"Feature","properties":{"shapeName":"Borno","shapeISO":"NG-BO","shapeID":"27671186B753479316714","shapeGroup":"NGA","shapeType":"ADM1"},"geometry":{"type":"Polygon","coordinates":[[[11.836,10.034],[11.991,10.035],[12.087,10.06],[12.109,10.187],[12.15,10.25],[12.213,10.281],[12.306,10.336],[12.389,10.333],[12.557,10.395],[12.558,10.446],[12.603,10.484],[12.635,10.44],[12.713,10.545],[12.983,10.536],[13.107,10.447],[13.21,10.442],[13.227,10.456],[13.229,10.578],[13.319,10.737],[13.346,10.931],[13.391,10.892],[13.513,10.915],[13.655,10.945],[13.795,11.006],[13.881,11.136],[14.004,11.283],[14.362,11.366],[14.635,11.655],[14.615,11.852],[14.626,11.893],[14.64,11.923],[14.654,11.955],[14.635,11.994],[14.624,12.038],[14.64,12.081],[14.656,12.116],[14.668,12.153],[14.667,12.186],[14.636,12.191],[14.614,12.186],[14.609,12.201],[14.572,12.23],[14.559,12.259],[14.528,12.29],[14.521,12.314],[14.483,12.344],[14.464,12.361],[14.428,12.37],[14.373,12.363],[14.302,12.366],[14.279,12.371],[14.202,12.384],[14.186,12.435],[14.191,12.452],[14.188,12.482],[13.634,13.708],[13.349,13.715],[13.334,13.711],[13.325,13.692],[13.309,13.696],[13.31,13.683],[13.302,13.675],[13.294,13.668],[13.275,13.649],[13.258,13.631],[13.251,13.618],[13.248,13.605],[13.257,13.594],[13.228,13.59],[13.24,13.565],[13.215,13.552],[13.206,13.539],[13.198,13.513],[13.159,13.531],[13.139,13.522],[13.139,13.544],[13.124,13.529],[13.106,13.54],[13.089,13.52],[13.063,13.527],[13.069,13.539],[13.052,13.539],[12.793,13.402],[12.734,13.336],[12.708,13.321],[12.699,13.321],[12.689,13.297],[12.673,13.278],[12.644,13.289],[12.634,13.289],[12.591,13.283],[12.593,13.255],[12.566,13.238],[12.534,13.207],[12.552,13.169],[12.525,13.149],[12.419,13.046],[12.405,12.897],[12.481,12.804],[12.483,12.644],[12.436,12.574],[12.367,12.492],[12.27,12.333],[12.252,12.049],[12.257,11.818],[12.208,11.688],[12.314,11.606],[12.303,11.445],[12.187,11.302],[12.153,11.12],[12.094,11.038],[11.967,10.968],[11.887,10.955],[11.863,10.944],[11.819,10.945],[11.79,10.934],[11.763,10.917],[11.743,10.908],[11.717,10.9],[11.672,10.878],[11.634,10.833],[11.767,10.723],[11.583,10.594],[11.655,10.456],[11.561,10.371],[11.546,10.301],[11.581,10.287],[11.618,10.23],[11.646,10.203],[11.736,10.118],[11.836,10.034]]]}},{"type":"Feature","properties":{"shapeName":"Katsina","shapeISO":"NG-KT","shapeID":"27671186B99661334382691","shapeGroup":"NGA","shapeType":"ADM1"},"geometry":{"type":"Polygon","coordinates":[[[6.889,11.384],[6.94,11.374],[7.006,11.362],[7.01,11.331],[6.972,11.256],[7.04,11.205],[7.077,11.195],[7.123,11.145],[7.2,11.152],[7.211,11.202],[7.195,11.258],[7.25,11.273],[7.284,11.275],[7.358,11.264],[7.392,11.375],[7.468,11.378],[7.506,11.356],[7.538,11.335],[7.631,11.285],[7.664,11.297],[7.683,11.31],[7.708,11.316],[7.716,11.336],[7.73,11.372],[7.748,11.388],[7.694,11.42],[7.687,11.47],[7.682,11.517],[7.719,11.569],[7.711,11.597],[7.758,11.624],[7.798,11.631],[7.84,11.632],[7.866,11.649],[7.897,11.649],[7.892,11.668],[7.896,11.694],[7.877,11.718],[7.858,11.795],[7.852,11.836],[7.844,11.902],[7.829,11.969],[7.88,12.044],[7.867,12.093],[7.864,12.118],[7.855,12.15],[7.86,12.163],[7.862,12.189],[7.871,12.22],[7.87,12.266],[7.892,12.33],[7.954,12.358],[7.969,12.363],[7.983,12.372],[7.999,12.389],[8.108,12.416],[8.165,12.451],[8.177,12.496],[8.184,12.507],[8.174,12.52],[8.177,12.538],[8.18,12.555],[8.232,12.585],[8.204,12.622],[8.182,12.652],[8.143,12.715],[8.182,12.75],[8.152,12.797],[8.192,12.816],[8.261,12.83],[8.371,12.825],[8.459,12.822],[8.563,12.834],[8.588,12.794],[8.652,12.733],[8.678,12.713],[8.723,12.683],[8.805,12.673],[8.848,12.675],[8.923,12.707],[9.015,12.809],[8.996,12.84],[8.955,12.856],[8.542,13.075],[8.409,13.088],[8.226,13.224],[7.82,13.352],[7.687,13.278],[7.188,13.092],[7.049,12.987],[7.057,12.955],[7.051,12.942],[7.06,12.918],[7.066,12.908],[7.065,12.877],[7.056,12.823],[7.043,12.72],[7.047,12.638],[7.051,12.54],[7.075,12.375],[7.15,12.232],[7.128,12.124],[7.137,12.078],[7.143,12.064],[7.154,12.026],[7.18,12.008],[7.197,11.993],[7.21,11.976],[7.224,11.952],[7.226,11.914],[7.193,11.901],[7.165,11.909],[7.146,11.866],[7.063,11.804],[7.021,11.811],[6.991,11.811],[6.977,11.809],[6.944,11.798],[6.917,11.786],[6.902,11.789],[6.886,11.761],[6.885,11.735],[6.866,11.663],[6.867,11.578],[6.907,11.475],[6.889,11.384]]]}},{"type":"Feature","properties":{"shapeName":"Plateau","shapeISO":"NG-PL","shapeID":"27671186B51792679167430","shapeGroup":"NGA","shapeType":"ADM1"},"geometry":{"type":"Polygon","coordinates":[[[9.617,8.372],[9.646,8.381],[9.668,8.381],[9.707,8.375],[9.765,8.374],[9.809,8.397],[9.891,8.448],[9.998,8.541],[10.066,8.613],[10.116,8.673],[10.18,8.732],[10.236,8.792],[10.267,8.819],[10.305,8.845],[10.369,8.902],[10.427,8.948],[10.498,8.965],[10.539,8.97],[10.597,8.976],[10.63,9.031],[10.64,9.073],[10.633,9.111],[10.626,9.138],[10.61,9.176],[10.6,9.201],[10.588,9.238],[10.581,9.313],[10.568,9.344],[10.567,9.373],[10.564,9.396],[10.579,9.439],[10.523,9.488],[10.489,9.553],[10.44,9.576],[10.383,9.598],[10.312,9.644],[10.267,9.681],[10.207,9.688],[10.15,9.681],[10.122,9.694],[10.105,9.711],[10.079,9.726],[10.048,9.726],[10.014,9.719],[9.973,9.7],[9.981,9.623],[9.916,9.611],[9.831,9.599],[9.764,9.54],[9.704,9.527],[9.668,9.535],[9.648,9.522],[9.62,9.541],[9.611,9.549],[9.587,9.544],[9.57,9.529],[9.404,9.51],[9.304,9.572],[9.29,9.614],[9.291,9.658],[9.288,9.692],[9.21,9.687],[9.189,9.717],[9.15,9.748],[9.209,9.77],[9.244,9.802],[9.272,9.846],[9.251,10.025],[9.193,10.04],[9.155,10.046],[9.119,10.056],[9.059,10.018],[9.007,10.033],[9.006,10.012],[8.977,9.987],[8.95,10.02],[8.952,10.093],[8.972,10.151],[8.974,10.19],[8.935,10.246],[8.954,10.289],[8.942,10.333],[8.918,10.354],[8.823,10.374],[8.804,10.345],[8.791,10.293],[8.75,10.281],[8.713,10.23],[8.673,10.138],[8.665,9.964],[8.639,9.856],[8.634,9.755],[8.599,9.728],[8.582,9.676],[8.57,9.64],[8.555,9.581],[8.574,9.514],[8.603,9.483],[8.624,9.429],[8.648,9.396],[8.695,9.378],[8.691,9.34],[8.688,9.299],[8.661,9.195],[8.687,9.185],[8.761,9.167],[8.761,9.121],[8.769,9.095],[8.789,9.052],[8.812,9.03],[8.885,9.022],[8.955,9.017],[9.02,9.022],[9.063,9.018],[9.067,8.966],[9.068,8.941],[9.032,8.895],[8.999,8.853],[8.959,8.85],[8.951,8.816],[8.924,8.782],[8.905,8.758],[8.892,8.733],[8.926,8.677],[8.95,8.634],[8.978,8.605],[8.987,8.565],[8.975,8.541],[9.005,8.514],[9.026,8.513],[9.059,8.512],[9.076,8.486],[9.103,8.464],[9.122,8.438],[9.132,8.429],[9.175,8.467],[9.212,8.457],[9.273,8.464],[9.321,8.47],[9.355,8.483],[9.427,8.453],[9.52,8.415],[9.589,8.397],[9.617,8.372]]]}},{"type":"Feature","properties":{"shapeName":"Edo","shapeISO":"NG-ED","shapeID":"27671186B63712480376187","shapeGroup":"NGA","shapeType":"ADM1"},"geometry":{"type":"Polygon","coordinates":[[[5.134,6.169],[5.143,6.143],[5.161,6.143],[5.169,6.164],[5.184,6.147],[5.203,6.145],[5.222,6.148],[5.231,6.119],[5.234,6.065],[5.268,6.053],[5.25,5.968],[5.27,5.917],[5.316,5.932],[5.345,5.975],[5.327,5.994],[5.34,6.02],[5.402,6.023],[5.428,6.007],[5.429,6.025],[5.453,6.025],[5.49,6.03],[5.501,6.037],[5.519,6.016],[5.532,6.004],[5.583,6.011],[5.626,6.029],[5.745,6.009],[5.831,5.96],[5.907,5.844],[5.903,5.795],[5.941,5.746],[6.016,5.764],[6.076,5.786],[6.152,5.858],[6.218,5.917],[6.248,5.984],[6.243,6.053],[6.196,6.054],[6.134,6.136],[6.077,6.279],[6.113,6.349],[6.18,6.321],[6.213,6.279],[6.282,6.357],[6.336,6.378],[6.38,6.385],[6.449,6.428],[6.51,6.476],[6.576,6.495],[6.633,6.489],[6.662,6.558],[6.628,6.675],[6.632,6.769],[6.611,6.822],[6.653,6.908],[6.69,7.068],[6.701,7.178],[6.675,7.233],[6.544,7.275],[6.508,7.27],[6.498,7.318],[6.473,7.361],[6.436,7.36],[6.422,7.389],[6.428,7.415],[6.295,7.499],[6.238,7.476],[6.187,7.439],[6.176,7.434],[6.128,7.446],[6.108,7.484],[6.129,7.505],[6.164,7.55],[6.119,7.591],[6.025,7.559],[6.004,7.529],[5.967,7.516],[5.953,7.507],[5.963,7.46],[5.987,7.442],[5.968,7.415],[5.976,7.396],[5.978,7.368],[5.958,7.344],[5.919,7.324],[5.907,7.275],[5.899,7.245],[5.884,7.2],[5.882,7.176],[5.868,7.141],[5.843,7.118],[5.85,7.092],[5.81,7.051],[5.794,7.016],[5.786,6.968],[5.79,6.901],[5.774,6.854],[5.778,6.818],[5.726,6.769],[5.654,6.735],[5.605,6.729],[5.564,6.721],[5.563,6.762],[5.544,6.813],[5.564,6.838],[5.562,6.879],[5.255,6.883],[5.197,6.774],[5.141,6.731],[5.118,6.684],[5.128,6.594],[5.141,6.574],[5.162,6.559],[5.16,6.539],[5.15,6.505],[5.145,6.489],[5.123,6.463],[5.103,6.438],[5.104,6.421],[5.086,6.389],[5.049,6.382],[5.032,6.365],[5.035,6.333],[5.015,6.309],[5.03,6.279],[5.053,6.247],[5.079,6.223],[5.082,6.218],[5.096,6.197],[5.11,6.195],[5.122,6.206],[5.136,6.187],[5.138,6.173],[5.134,6.169]]]}},{"type":"Feature","properties":{"shapeName":"Jigawa","shapeISO":"NG-JI","shapeID":"27671186B1226853346294","shapeGroup":"NGA","shapeType":"ADM1"},"geometry":{"type":"Polygon","coordinates":[[[8.246,12.594],[8.3,12.527],[8.377,12.436],[8.408,12.496],[8.556,12.603],[8.692,12.572],[8.697,12.495],[8.729,12.425],[8.795,12.382],[8.725,12.305],[8.84,12.308],[8.945,12.196],[8.94,12.132],[8.946,12.072],[9.007,12.063],[9.084,12.039],[9.145,12.042],[9.2,12.068],[9.207,11.946],[9.212,11.869],[9.144,11.827],[9.157,11.719],[9.203,11.73],[9.233,11.673],[9.278,11.639],[9.36,11.561],[9.253,11.472],[9.232,11.406],[9.287,11.349],[9.33,11.34],[9.38,11.331],[9.464,11.282],[9.505,11.295],[9.559,11.317],[9.594,11.257],[9.671,11.225],[9.701,11.229],[9.721,11.248],[9.745,11.247],[9.783,11.262],[9.811,11.278],[9.872,11.199],[9.878,11.133],[9.859,11.014],[9.986,10.958],[10.111,10.963],[10.187,10.945],[10.156,11.006],[10.179,11.07],[10.258,11.083],[10.292,11.122],[10.331,11.119],[10.365,11.179],[10.279,11.203],[10.165,11.228],[10.108,11.254],[9.977,11.277],[9.912,11.318],[9.888,11.381],[9.877,11.446],[9.786,11.482],[9.82,11.58],[9.814,11.619],[9.821,11.672],[9.713,11.721],[9.634,11.742],[9.62,11.754],[9.629,11.759],[9.643,11.777],[9.661,11.781],[9.683,11.867],[9.702,11.855],[9.763,11.868],[9.809,11.882],[9.909,11.943],[9.935,11.952],[9.963,11.954],[10.017,11.983],[10.046,11.98],[10.061,11.986],[10.068,11.988],[10.082,11.998],[10.092,12.006],[10.11,12.014],[10.125,12.018],[10.139,12.023],[10.162,12.037],[10.175,12.046],[10.153,12.102],[10.148,12.238],[10.206,12.319],[10.202,12.336],[10.254,12.391],[10.344,12.445],[10.411,12.459],[10.516,12.468],[10.576,12.475],[10.603,12.488],[10.604,12.515],[10.598,12.524],[10.589,12.537],[10.588,12.566],[10.583,12.654],[10.599,12.703],[10.566,12.794],[10.543,12.82],[10.495,12.816],[10.475,12.79],[10.325,12.811],[10.289,12.906],[10.285,12.964],[10.203,13.008],[10.099,12.986],[10.039,12.962],[9.954,12.936],[9.896,12.853],[9.786,12.799],[9.711,12.814],[9.431,12.823],[9.058,12.845],[8.923,12.707],[8.829,12.676],[8.712,12.681],[8.651,12.728],[8.589,12.809],[8.459,12.822],[8.337,12.836],[8.179,12.811],[8.18,12.756],[8.16,12.684],[8.204,12.622],[8.246,12.594]]]}},{"type":"Feature","properties":{"shapeName":"Anambra","shapeISO":"NG-AN","shapeID":"27671186B76680224160916","shapeGroup":"NGA","shapeType":"ADM1"},"geometry":{"type":"Polygon","coordinates":[[[6.602,5.687],[6.626,5.684],[6.653,5.682],[6.669,5.69],[6.679,5.696],[6.691,5.7],[6.695,5.746],[6.714,5.761],[6.73,5.751],[6.751,5.75],[6.762,5.758],[6.794,5.774],[6.801,5.785],[6.804,5.786],[6.811,5.788],[6.82,5.784],[6.849,5.764],[6.866,5.748],[6.872,5.744],[6.877,5.744],[6.88,5.746],[6.884,5.754],[6.886,5.787],[6.89,5.806],[6.892,5.809],[6.901,5.817],[6.909,5.821],[6.933,5.83],[6.948,5.839],[6.954,5.845],[6.956,5.851],[6.979,5.875],[6.997,5.899],[7.003,5.905],[7.009,5.908],[7.026,5.91],[7.031,5.912],[7.048,5.927],[7.053,5.929],[7.06,5.931],[7.076,5.93],[7.108,5.926],[7.119,5.922],[7.143,5.919],[7.165,5.911],[7.189,5.9],[7.191,5.9],[7.195,5.905],[7.203,5.921],[7.212,5.929],[7.229,5.933],[7.249,5.932],[7.257,5.935],[7.261,5.939],[7.256,5.951],[7.255,5.965],[7.264,5.991],[7.273,5.998],[7.318,5.999],[7.323,6.004],[7.333,6.031],[7.338,6.036],[7.339,6.042],[7.304,6.045],[7.3,6.048],[7.297,6.053],[7.297,6.056],[7.301,6.066],[7.304,6.071],[7.31,6.076],[7.309,6.079],[7.285,6.078],[7.261,6.079],[7.255,6.105],[7.25,6.106],[7.248,6.109],[7.24,6.114],[7.229,6.128],[7.224,6.143],[7.222,6.158],[7.225,6.179],[7.224,6.191],[7.209,6.202],[7.204,6.209],[7.203,6.218],[7.2,6.235],[7.189,6.239],[7.151,6.229],[7.151,6.23],[7.143,6.236],[7.145,6.236],[7.145,6.24],[7.142,6.244],[7.145,6.246],[7.145,6.25],[7.148,6.251],[7.147,6.256],[7.149,6.262],[7.143,6.289],[7.15,6.297],[7.16,6.303],[7.162,6.316],[7.159,6.323],[7.152,6.329],[7.142,6.36],[7.142,6.38],[7.144,6.388],[7.131,6.399],[7.115,6.401],[7.1,6.419],[7.089,6.426],[7.071,6.429],[7.064,6.428],[7.065,6.437],[7.039,6.44],[7.032,6.442],[7.033,6.467],[7.036,6.474],[7.045,6.471],[7.05,6.474],[7.046,6.501],[7.046,6.512],[7.048,6.527],[7.055,6.545],[7.063,6.555],[7.078,6.558],[7.084,6.562],[7.092,6.576],[7.109,6.593],[7.116,6.603],[7.118,6.615],[7.125,6.626],[7.132,6.643],[7.133,6.652],[7.129,6.659],[7.102,6.676],[7.09,6.677],[7.07,6.686],[7.051,6.683],[7.046,6.687],[7.017,6.706],[6.991,6.713],[6.957,6.71],[6.944,6.706],[6.939,6.703],[6.936,6.696],[6.931,6.696],[6.927,6.698],[6.923,6.699],[6.919,6.699],[6.913,6.695],[6.91,6.696],[6.861,6.753],[6.834,6.722],[6.806,6.703],[6.8,6.693],[6.799,6.68],[6.809,6.616],[6.808,6.58],[6.793,6.572],[6.764,6.564],[6.716,6.56],[6.672,6.568],[6.662,6.558],[6.669,6.501],[6.674,6.468],[6.682,6.456],[6.692,6.418],[6.7,6.382],[6.707,6.369],[6.713,6.353],[6.722,6.283],[6.723,6.266],[6.726,6.26],[6.731,6.239],[6.743,6.209],[6.754,6.193],[6.767,6.182],[6.769,6.168],[6.761,6.148],[6.755,6.121],[6.749,6.114],[6.722,6.098],[6.713,6.087],[6.705,6.081],[6.699,6.061],[6.703,6.051],[6.72,6.046],[6.726,6.041],[6.726,6.029],[6.725,6.012],[6.717,5.981],[6.716,5.97],[6.709,5.959],[6.7,5.929],[6.686,5.905],[6.674,5.889],[6.661,5.857],[6.658,5.84],[6.651,5.817],[6.647,5.785],[6.648,5.772],[6.644,5.747],[6.639,5.739],[6.601,5.707],[6.602,5.687]]]}},{"type":"Feature","properties":{"shapeName":"Kano","shapeISO":"NG-KN","shapeID":"27671186B50148357657004","shapeGroup":"NGA","shapeType":"ADM1"},"geometry":{"type":"Polygon","coordinates":[[[7.751,11.371],[7.775,11.375],[7.798,11.377],[7.813,11.378],[7.856,11.378],[7.883,11.399],[7.899,11.431],[7.93,11.448],[7.949,11.466],[7.979,11.483],[7.996,11.492],[8.023,11.489],[8.054,11.491],[8.082,11.506],[8.107,11.524],[8.162,11.497],[8.129,11.411],[8.165,11.363],[8.237,11.327],[8.256,11.301],[8.274,11.278],[8.291,11.252],[8.334,11.229],[8.434,11.227],[8.465,11.17],[8.506,11.158],[8.52,11.115],[8.59,11.082],[8.597,10.989],[8.578,10.907],[8.575,10.827],[8.559,10.789],[8.521,10.731],[8.497,10.68],[8.519,10.642],[8.594,10.645],[8.704,10.549],[8.771,10.587],[8.848,10.68],[8.822,10.769],[8.745,10.862],[8.768,10.936],[8.79,10.948],[8.794,11.061],[8.802,11.074],[8.818,11.097],[8.883,11.112],[8.91,11.144],[8.919,11.17],[8.949,11.194],[8.967,11.206],[8.98,11.222],[9.0,11.236],[9.018,11.26],[9.051,11.287],[9.083,11.314],[9.118,11.324],[9.14,11.322],[9.18,11.309],[9.222,11.374],[9.234,11.42],[9.26,11.476],[9.343,11.532],[9.282,11.613],[9.241,11.645],[9.233,11.677],[9.226,11.736],[9.174,11.703],[9.142,11.759],[9.152,11.829],[9.206,11.863],[9.227,11.909],[9.223,11.99],[9.199,12.083],[9.148,12.046],[9.098,12.023],[9.077,12.06],[8.996,12.064],[8.949,12.075],[8.937,12.119],[8.931,12.155],[8.944,12.202],[8.91,12.301],[8.761,12.288],[8.752,12.329],[8.785,12.393],[8.733,12.423],[8.689,12.468],[8.718,12.538],[8.683,12.562],[8.6,12.597],[8.489,12.601],[8.396,12.473],[8.367,12.436],[8.303,12.528],[8.289,12.6],[8.228,12.585],[8.179,12.552],[8.176,12.53],[8.18,12.511],[8.177,12.496],[8.159,12.447],[8.034,12.404],[7.987,12.373],[7.972,12.369],[7.954,12.358],[7.887,12.31],[7.876,12.235],[7.864,12.202],[7.86,12.17],[7.855,12.15],[7.87,12.116],[7.868,12.083],[7.845,11.995],[7.83,11.922],[7.852,11.836],[7.861,11.762],[7.883,11.708],[7.894,11.679],[7.901,11.65],[7.866,11.649],[7.832,11.632],[7.793,11.626],[7.722,11.603],[7.717,11.572],[7.682,11.517],[7.692,11.461],[7.722,11.416],[7.751,11.371]]]}},{"type":"Feature","properties":{"shapeName":"Nasarawa","shapeISO":"NG-NA","shapeID":"27671186B74554005070963","shapeGroup":"NGA","shapeType":"ADM1"},"geometry":{"type":"Polygon","coordinates":[[[6.981,8.444],[6.956,8.359],[6.935,8.31],[6.953,8.284],[6.972,8.225],[7.001,8.182],[6.987,8.093],[6.973,8.02],[6.964,7.96],[6.954,7.905],[6.967,7.879],[7.073,7.943],[7.254,8.015],[7.393,8.044],[7.451,8.049],[7.583,8.038],[7.677,8.014],[7.838,7.985],[7.903,7.969],[8.072,7.877],[8.16,7.86],[8.215,7.835],[8.372,7.77],[8.421,7.774],[8.415,7.792],[8.407,7.818],[8.398,7.857],[8.389,7.893],[8.34,7.961],[8.36,7.987],[8.391,8.078],[8.504,8.158],[8.588,8.129],[8.781,8.075],[9.025,8.063],[9.115,8.008],[9.179,7.908],[9.281,7.956],[9.404,8.046],[9.403,8.08],[9.392,8.133],[9.401,8.159],[9.406,8.187],[9.371,8.215],[9.323,8.253],[9.355,8.315],[9.377,8.35],[9.483,8.306],[9.518,8.302],[9.61,8.291],[9.614,8.318],[9.605,8.386],[9.589,8.397],[9.528,8.415],[9.442,8.446],[9.408,8.464],[9.355,8.483],[9.336,8.478],[9.291,8.463],[9.264,8.46],[9.212,8.457],[9.177,8.463],[9.146,8.443],[9.128,8.43],[9.122,8.438],[9.097,8.448],[9.088,8.484],[9.07,8.488],[9.059,8.512],[9.037,8.513],[9.014,8.512],[8.997,8.517],[8.975,8.541],[8.984,8.558],[8.983,8.585],[8.97,8.606],[8.95,8.634],[8.935,8.668],[8.911,8.703],[8.892,8.74],[8.905,8.758],[8.908,8.784],[8.938,8.794],[8.951,8.827],[8.959,8.85],[8.99,8.851],[9.011,8.854],[9.044,8.913],[9.068,8.941],[9.071,8.961],[9.071,8.988],[9.057,9.024],[9.02,9.022],[8.967,9.015],[8.924,9.016],[8.876,9.025],[8.812,9.03],[8.79,9.043],[8.792,9.083],[8.769,9.098],[8.761,9.121],[8.765,9.165],[8.708,9.188],[8.677,9.186],[8.661,9.195],[8.65,9.173],[8.594,9.091],[8.564,9.052],[8.576,9.042],[8.562,9.03],[8.554,9.02],[8.514,9.001],[8.491,9.038],[8.447,9.113],[8.396,9.162],[8.343,9.194],[8.328,9.181],[8.301,9.189],[8.254,9.147],[8.138,9.036],[8.071,9.155],[8.061,9.266],[7.984,9.298],[7.897,9.306],[7.808,9.273],[7.731,9.326],[7.589,9.129],[7.502,8.669],[7.443,8.593],[7.38,8.522],[7.27,8.464],[7.141,8.435],[7.086,8.433],[6.981,8.444]]]}},{"type":"Feature","properties":{"shapeName":"Kebbi","shapeISO":"NG-KE","shapeID":"27671186B53868438251790","shapeGroup":"NGA","shapeType":"ADM1"},"geometry":{"type":"Polygon","coordinates":[[[4.126,13.25],[4.105,12.996],[3.888,12.705],[3.652,12.486],[3.63,12.149],[3.619,11.908],[3.637,11.718],[3.513,11.623],[3.488,11.306],[3.565,11.253],[3.668,11.146],[3.709,11.138],[3.722,11.115],[3.721,11.05],[3.773,10.92],[4.068,11.022],[4.266,11.019],[4.277,10.954],[4.45,10.886],[4.602,10.888],[4.627,10.894],[4.658,10.901],[4.716,10.89],[4.702,10.814],[4.692,10.745],[4.689,10.692],[4.646,10.617],[4.624,10.597],[4.616,10.591],[4.602,10.577],[4.585,10.564],[4.491,10.314],[4.567,10.223],[4.65,10.181],[4.778,10.257],[4.876,10.459],[4.824,10.595],[4.807,10.693],[4.863,10.708],[4.908,10.69],[4.951,10.694],[5.003,10.722],[5.048,10.737],[5.088,10.757],[5.084,10.817],[5.035,10.899],[5.041,11.052],[4.98,11.081],[4.84,11.114],[4.779,11.131],[4.722,11.206],[4.708,11.275],[4.738,11.304],[4.819,11.34],[4.854,11.355],[4.883,11.361],[4.939,11.364],[4.981,11.319],[5.003,11.267],[5.041,11.27],[5.049,11.228],[5.185,11.228],[5.336,11.348],[5.373,11.263],[5.394,11.162],[5.387,11.092],[5.502,10.985],[5.52,10.99],[5.542,10.96],[5.568,10.952],[5.585,10.967],[5.74,11.023],[5.826,11.093],[5.915,11.145],[6.055,11.218],[6.076,11.169],[6.136,11.295],[6.178,11.384],[6.026,11.445],[5.891,11.44],[5.816,11.515],[5.821,11.566],[5.819,11.648],[5.67,11.661],[5.542,11.666],[5.497,11.656],[5.46,11.684],[5.405,11.703],[5.366,11.714],[5.341,11.734],[5.297,11.761],[5.3,11.781],[5.271,11.78],[5.219,11.758],[5.191,11.784],[5.166,11.78],[5.17,11.742],[5.148,11.738],[5.127,11.731],[5.066,11.709],[5.03,11.72],[5.007,11.75],[4.977,11.737],[4.944,11.732],[4.914,11.717],[4.891,11.738],[4.873,11.735],[4.833,11.752],[4.809,11.76],[4.78,11.74],[4.75,11.72],[4.721,11.695],[4.677,11.682],[4.667,11.668],[4.57,11.633],[4.554,11.565],[4.419,11.614],[4.377,11.742],[4.378,11.758],[4.417,11.709],[4.549,11.796],[4.575,12.075],[4.524,12.25],[4.56,12.305],[4.599,12.401],[4.703,12.38],[4.752,12.393],[4.795,12.575],[4.776,12.79],[4.698,12.922],[4.652,12.954],[4.666,12.973],[4.678,12.999],[4.683,13.079],[4.46,13.183],[4.214,13.264],[4.126,13.25]]]}},{"type":"Feature","properties":{"shapeName":"Imo","shapeISO":"NG-IM","shapeID":"27671186B8148656125930","shapeGroup":"NGA","shapeType":"ADM1"},"geometry":{"type":"Polygon","coordinates":[[[7.264,5.216],[7.268,5.242],[7.276,5.256],[7.279,5.278],[7.291,5.304],[7.292,5.328],[7.304,5.348],[7.306,5.358],[7.313,5.363],[7.322,5.383],[7.323,5.395],[7.322,5.401],[7.323,5.408],[7.336,5.432],[7.347,5.442],[7.354,5.445],[7.359,5.45],[7.364,5.466],[7.376,5.479],[7.38,5.491],[7.388,5.51],[7.393,5.512],[7.404,5.529],[7.409,5.543],[7.408,5.548],[7.409,5.553],[7.417,5.562],[7.415,5.576],[7.422,5.581],[7.423,5.584],[7.426,5.586],[7.429,5.604],[7.432,5.609],[7.428,5.627],[7.423,5.635],[7.418,5.649],[7.416,5.661],[7.41,5.674],[7.408,5.677],[7.39,5.691],[7.384,5.699],[7.382,5.706],[7.383,5.708],[7.397,5.709],[7.4,5.71],[7.4,5.713],[7.4,5.721],[7.396,5.737],[7.394,5.756],[7.395,5.765],[7.394,5.772],[7.394,5.784],[7.392,5.809],[7.392,5.834],[7.386,5.861],[7.39,5.882],[7.396,5.899],[7.396,5.908],[7.392,5.912],[7.388,5.913],[7.377,5.906],[7.367,5.903],[7.363,5.904],[7.356,5.906],[7.346,5.907],[7.335,5.911],[7.285,5.918],[7.271,5.925],[7.261,5.939],[7.257,5.935],[7.249,5.932],[7.229,5.933],[7.212,5.929],[7.203,5.921],[7.195,5.905],[7.191,5.9],[7.189,5.9],[7.165,5.911],[7.143,5.919],[7.119,5.922],[7.108,5.926],[7.076,5.93],[7.06,5.931],[7.053,5.929],[7.048,5.927],[7.031,5.912],[7.026,5.91],[7.009,5.908],[7.003,5.905],[6.997,5.899],[6.979,5.875],[6.956,5.851],[6.954,5.845],[6.948,5.839],[6.933,5.83],[6.909,5.821],[6.901,5.817],[6.892,5.809],[6.89,5.806],[6.886,5.787],[6.884,5.754],[6.88,5.746],[6.877,5.744],[6.872,5.744],[6.866,5.748],[6.849,5.764],[6.82,5.784],[6.811,5.788],[6.804,5.786],[6.801,5.785],[6.794,5.774],[6.762,5.758],[6.751,5.75],[6.73,5.751],[6.714,5.761],[6.695,5.746],[6.691,5.7],[6.679,5.696],[6.669,5.69],[6.639,5.493],[6.653,5.491],[6.716,5.489],[6.733,5.494],[6.741,5.494],[6.745,5.484],[6.75,5.476],[6.751,5.465],[6.744,5.459],[6.744,5.449],[6.749,5.439],[6.753,5.433],[6.763,5.41],[6.758,5.39],[6.76,5.353],[6.758,5.343],[6.756,5.323],[6.771,5.301],[6.804,5.269],[6.827,5.252],[6.836,5.25],[6.849,5.25],[6.866,5.243],[6.876,5.238],[6.888,5.226],[6.904,5.22],[6.929,5.226],[6.96,5.232],[6.972,5.236],[6.987,5.234],[6.998,5.239],[7.012,5.242],[7.015,5.242],[7.04,5.25],[7.053,5.246],[7.06,5.24],[7.062,5.24],[7.084,5.229],[7.087,5.229],[7.104,5.222],[7.123,5.216],[7.165,5.212],[7.174,5.21],[7.198,5.2],[7.21,5.197],[7.232,5.195],[7.242,5.196],[7.251,5.202],[7.256,5.213],[7.26,5.213],[7.264,5.216]]]}},{"type":"Feature","properties":{"shapeName":"Gombe","shapeISO":"NG-GO","shapeID":"27671186B90305463766462","shapeGroup":"NGA","shapeType":"ADM1"},"geometry":{"type":"Polygon","coordinates":[[[11.583,10.594],[11.552,10.588],[11.517,10.57],[11.513,10.607],[11.524,10.66],[11.516,10.684],[11.517,10.732],[11.527,10.758],[11.536,10.823],[11.534,10.834],[11.539,10.851],[11.529,10.877],[11.529,10.893],[11.532,10.918],[11.527,10.942],[11.495,10.991],[11.471,11.022],[11.435,11.056],[11.402,11.088],[11.391,11.09],[11.371,11.098],[11.374,11.105],[11.375,11.11],[11.36,11.127],[11.348,11.153],[11.319,11.186],[11.275,11.172],[11.224,11.165],[11.182,11.199],[11.134,11.208],[11.077,11.287],[11.009,11.149],[10.937,11.096],[10.93,11.091],[10.91,11.088],[10.864,11.088],[10.799,11.084],[10.787,11.064],[10.738,11.101],[10.69,11.047],[10.669,11.04],[10.662,11.011],[10.66,10.985],[10.641,10.961],[10.663,10.946],[10.677,10.931],[10.652,10.881],[10.636,10.868],[10.62,10.851],[10.596,10.827],[10.569,10.811],[10.521,10.733],[10.519,10.725],[10.511,10.72],[10.505,10.714],[10.5,10.698],[10.525,10.663],[10.538,10.649],[10.569,10.628],[10.57,10.587],[10.612,10.557],[10.666,10.491],[10.689,10.493],[10.705,10.48],[10.73,10.487],[10.791,10.435],[10.8,10.451],[10.814,10.438],[10.835,10.4],[10.828,10.351],[10.823,10.331],[10.819,10.313],[10.863,10.268],[10.857,10.236],[10.839,10.215],[10.82,10.181],[10.819,10.157],[10.8,10.135],[10.775,10.138],[10.738,10.121],[10.721,10.095],[10.713,10.089],[10.717,10.063],[10.728,10.042],[10.788,10.006],[10.825,9.97],[10.866,9.95],[10.891,9.931],[10.945,9.88],[10.959,9.852],[10.961,9.823],[10.97,9.812],[10.982,9.775],[10.979,9.77],[10.966,9.752],[10.966,9.731],[10.957,9.711],[10.961,9.696],[10.956,9.672],[10.985,9.642],[10.988,9.63],[10.978,9.575],[10.992,9.559],[11.02,9.549],[11.062,9.552],[11.084,9.547],[11.114,9.526],[11.161,9.551],[11.222,9.569],[11.244,9.562],[11.269,9.549],[11.338,9.549],[11.42,9.546],[11.434,9.552],[11.444,9.576],[11.484,9.604],[11.502,9.608],[11.546,9.605],[11.567,9.611],[11.582,9.62],[11.598,9.649],[11.634,9.627],[11.664,9.648],[11.684,9.663],[11.701,9.674],[11.736,9.7],[11.746,9.705],[11.776,9.707],[11.817,9.741],[11.851,9.786],[11.852,9.814],[11.826,9.823],[11.801,9.841],[11.816,9.891],[11.829,9.915],[11.833,9.949],[11.823,9.97],[11.83,10.016],[11.836,10.034],[11.79,10.039],[11.78,10.06],[11.761,10.079],[11.752,10.102],[11.731,10.143],[11.711,10.173],[11.687,10.19],[11.656,10.201],[11.646,10.203],[11.634,10.208],[11.621,10.213],[11.61,10.224],[11.617,10.229],[11.614,10.237],[11.612,10.249],[11.595,10.26],[11.59,10.283],[11.581,10.287],[11.57,10.289],[11.564,10.297],[11.557,10.296],[11.55,10.296],[11.545,10.318],[11.531,10.319],[11.546,10.327],[11.543,10.342],[11.561,10.371],[11.569,10.385],[11.597,10.395],[11.598,10.418],[11.62,10.442],[11.656,10.461],[11.661,10.486],[11.663,10.497],[11.6,10.534],[11.583,10.594]]]}},{"type":"Feature","properties":{"shapeName":"Adamawa","shapeISO":"NG-AD","shapeID":"27671186B49737451005073","shapeGroup":"NGA","shapeType":"ADM1"},"geometry":{"type":"Polygon","coordinates":[[[11.836,10.034],[11.823,9.97],[11.829,9.915],[11.801,9.841],[11.852,9.814],[11.817,9.741],[11.746,9.705],[11.701,9.674],[11.664,9.648],[11.598,9.649],[11.567,9.611],[11.502,9.608],[11.444,9.576],[11.436,9.54],[11.444,9.488],[11.494,9.451],[11.52,9.404],[11.53,9.378],[11.531,9.326],[11.599,9.302],[11.649,9.298],[11.679,9.224],[11.69,9.19],[11.696,9.114],[11.73,9.062],[11.792,9.02],[11.864,8.954],[11.865,8.91],[11.851,8.87],[11.832,8.792],[11.769,8.712],[11.76,8.664],[11.784,8.63],[11.767,8.597],[11.791,8.531],[11.73,8.471],[11.69,8.465],[11.656,8.445],[11.63,8.387],[11.566,8.285],[11.504,8.194],[11.408,8.107],[11.363,8.064],[11.347,8.036],[11.347,8.03],[11.352,8.003],[11.373,7.965],[11.466,7.828],[11.494,7.799],[11.526,7.845],[11.59,7.908],[11.646,7.866],[11.649,7.791],[11.649,7.743],[11.765,7.694],[11.767,7.603],[11.763,7.547],[11.796,7.455],[11.871,7.412],[12.044,7.578],[12.027,7.686],[12.096,7.826],[12.168,7.917],[12.183,7.937],[12.194,7.952],[12.21,7.977],[12.213,7.987],[12.209,8.003],[12.21,8.132],[12.255,8.236],[12.237,8.327],[12.263,8.419],[12.32,8.424],[12.519,8.455],[12.731,8.512],[12.857,8.686],[12.849,8.98],[12.906,9.341],[13.024,9.496],[13.151,9.515],[13.215,9.544],[13.245,9.594],[13.237,9.893],[13.275,9.938],[13.245,10.038],[13.275,10.058],[13.291,10.08],[13.396,10.11],[13.469,10.186],[13.508,10.214],[13.499,10.337],[13.542,10.499],[13.573,10.667],[13.677,10.807],[13.751,10.914],[13.641,10.946],[13.552,10.935],[13.502,10.911],[13.436,10.889],[13.391,10.892],[13.373,10.897],[13.35,10.932],[13.336,10.908],[13.336,10.8],[13.309,10.711],[13.258,10.612],[13.233,10.558],[13.235,10.463],[13.227,10.456],[13.228,10.443],[13.214,10.448],[13.207,10.416],[13.122,10.444],[13.052,10.464],[13.015,10.495],[12.959,10.548],[12.761,10.583],[12.713,10.545],[12.665,10.46],[12.64,10.436],[12.619,10.45],[12.6,10.461],[12.595,10.49],[12.567,10.469],[12.558,10.443],[12.557,10.434],[12.557,10.395],[12.463,10.375],[12.385,10.345],[12.372,10.318],[12.32,10.316],[12.291,10.33],[12.242,10.319],[12.201,10.278],[12.175,10.264],[12.15,10.25],[12.135,10.228],[12.127,10.204],[12.089,10.134],[12.101,10.074],[12.055,10.059],[12.019,10.067],[11.989,10.038],[11.931,10.026],[11.836,10.034]]]}},{"type":"Feature","properties":{"shapeName":"Yobe","shapeISO":"NG-YO","shapeID":"27671186B69054806776702","shapeGroup":"NGA","shapeType":"ADM1"},"geometry":{"type":"Polygon","coordinates":[[[12.43,13.073],[12.264,13.114],[12.233,13.106],[12.219,13.115],[12.205,13.124],[12.195,13.125],[12.181,13.117],[12.163,13.117],[12.025,13.158],[11.654,13.315],[11.436,13.377],[11.106,13.361],[10.997,13.376],[10.835,13.387],[10.464,13.319],[10.148,13.26],[9.957,13.135],[9.929,13.112],[9.909,13.112],[9.711,12.814],[9.778,12.799],[9.785,12.813],[9.858,12.82],[9.918,12.872],[9.964,12.944],[10.029,12.965],[10.057,12.974],[10.099,12.986],[10.149,12.988],[10.226,13.007],[10.282,12.979],[10.27,12.945],[10.29,12.875],[10.298,12.817],[10.41,12.831],[10.475,12.79],[10.502,12.809],[10.513,12.82],[10.538,12.824],[10.553,12.811],[10.569,12.794],[10.584,12.711],[10.6,12.695],[10.583,12.654],[10.592,12.589],[10.603,12.563],[10.586,12.539],[10.592,12.533],[10.598,12.522],[10.691,12.514],[10.782,12.291],[10.795,12.185],[10.823,12.109],[10.826,12.013],[10.818,11.999],[10.818,11.983],[10.819,11.98],[10.812,11.964],[10.805,11.951],[10.8,11.944],[10.817,11.886],[10.928,11.777],[10.929,11.586],[10.931,11.501],[10.933,11.462],[10.91,11.331],[10.921,11.268],[10.982,11.179],[11.182,11.199],[11.311,11.169],[11.36,11.127],[11.374,11.102],[11.402,11.088],[11.483,11.003],[11.532,10.918],[11.536,10.864],[11.536,10.823],[11.515,10.695],[11.513,10.607],[11.561,10.592],[11.657,10.614],[11.767,10.723],[11.742,10.821],[11.632,10.857],[11.656,10.88],[11.687,10.884],[11.706,10.899],[11.724,10.899],[11.739,10.909],[11.746,10.916],[11.763,10.917],[11.775,10.928],[11.795,10.935],[11.806,10.938],[11.834,10.939],[11.854,10.938],[11.871,10.945],[11.883,10.958],[11.895,10.962],[11.967,10.968],[12.017,11.016],[12.126,11.038],[12.168,11.079],[12.115,11.156],[12.113,11.26],[12.202,11.357],[12.267,11.418],[12.344,11.479],[12.314,11.606],[12.224,11.633],[12.214,11.703],[12.236,11.768],[12.268,11.847],[12.281,11.995],[12.264,12.179],[12.268,12.323],[12.287,12.425],[12.367,12.492],[12.419,12.524],[12.441,12.579],[12.465,12.614],[12.497,12.665],[12.491,12.774],[12.477,12.803],[12.408,12.888],[12.413,12.967],[12.419,13.046],[12.43,13.073]]]}},{"type":"Feature","properties":{"shapeName":"Abia","shapeISO":"NG-AB","shapeID":"27671186B83117616801018","shapeGroup":"NGA","shapeType":"ADM1"},"geometry":{"type":"Polygon","coordinates":[[[7.89,5.685],[7.871,5.694],[7.863,5.708],[7.841,5.724],[7.823,5.74],[7.797,5.762],[7.786,5.805],[7.769,5.814],[7.707,5.821],[7.571,5.841],[7.552,5.843],[7.527,5.844],[7.527,5.869],[7.503,5.9],[7.529,5.952],[7.524,5.988],[7.53,6.006],[7.52,6.02],[7.476,6.012],[7.452,6.014],[7.416,6.006],[7.387,6.037],[7.339,6.042],[7.333,6.031],[7.318,5.999],[7.264,5.991],[7.256,5.951],[7.271,5.925],[7.335,5.911],[7.356,5.906],[7.367,5.903],[7.388,5.913],[7.396,5.908],[7.39,5.882],[7.392,5.834],[7.394,5.784],[7.395,5.765],[7.396,5.737],[7.4,5.713],[7.397,5.709],[7.382,5.706],[7.39,5.691],[7.41,5.674],[7.418,5.649],[7.428,5.627],[7.429,5.604],[7.423,5.584],[7.415,5.576],[7.409,5.553],[7.409,5.543],[7.393,5.512],[7.38,5.491],[7.364,5.466],[7.354,5.445],[7.336,5.432],[7.322,5.401],[7.322,5.383],[7.306,5.358],[7.292,5.328],[7.279,5.278],[7.268,5.242],[7.275,5.21],[7.291,5.182],[7.288,5.147],[7.279,5.117],[7.265,5.095],[7.253,5.068],[7.252,5.033],[7.235,4.981],[7.218,4.962],[7.169,4.945],[7.15,4.924],[7.142,4.901],[7.147,4.89],[7.174,4.879],[7.199,4.862],[7.225,4.858],[7.257,4.867],[7.271,4.873],[7.32,4.88],[7.352,4.872],[7.374,4.863],[7.416,4.867],[7.437,4.854],[7.466,4.845],[7.474,4.837],[7.489,4.822],[7.501,4.834],[7.497,4.846],[7.499,4.859],[7.482,4.88],[7.482,4.893],[7.481,4.933],[7.492,4.944],[7.481,4.961],[7.463,4.973],[7.471,4.996],[7.484,4.996],[7.506,5.013],[7.512,5.03],[7.515,5.038],[7.528,5.038],[7.534,5.048],[7.52,5.055],[7.538,5.066],[7.547,5.088],[7.533,5.116],[7.528,5.156],[7.539,5.187],[7.542,5.256],[7.553,5.276],[7.534,5.301],[7.538,5.307],[7.549,5.307],[7.561,5.309],[7.572,5.324],[7.588,5.319],[7.603,5.327],[7.61,5.321],[7.631,5.321],[7.649,5.325],[7.665,5.344],[7.661,5.367],[7.638,5.365],[7.62,5.372],[7.633,5.407],[7.639,5.43],[7.66,5.447],[7.676,5.441],[7.7,5.432],[7.703,5.453],[7.702,5.49],[7.69,5.506],[7.696,5.518],[7.711,5.519],[7.714,5.512],[7.743,5.517],[7.757,5.51],[7.76,5.49],[7.778,5.473],[7.793,5.44],[7.821,5.423],[7.856,5.422],[7.865,5.418],[7.873,5.399],[7.876,5.369],[7.912,5.361],[7.934,5.358],[7.973,5.354],[7.988,5.363],[7.978,5.389],[7.972,5.399],[7.956,5.437],[7.939,5.461],[7.921,5.509],[7.907,5.56],[7.906,5.571],[7.914,5.636],[7.915,5.655],[7.89,5.685]]]}},{"type":"Feature","properties":{"shapeName":"Ekiti","shapeISO":"NG-EK","shapeID":"27671186B91150779192485","shapeGroup":"NGA","shapeType":"ADM1"},"geometry":{"type":"Polygon","coordinates":[[[5.773,7.747],[5.792,7.782],[5.768,7.788],[5.756,7.796],[5.746,7.805],[5.737,7.821],[5.729,7.828],[5.71,7.83],[5.668,7.829],[5.659,7.828],[5.643,7.829],[5.631,7.835],[5.623,7.843],[5.614,7.866],[5.609,7.911],[5.604,7.926],[5.602,7.943],[5.599,7.952],[5.599,7.958],[5.602,7.964],[5.61,7.966],[5.614,7.962],[5.627,7.957],[5.634,7.958],[5.645,7.963],[5.647,7.966],[5.648,7.986],[5.651,7.991],[5.657,7.994],[5.663,8.0],[5.668,8.002],[5.667,8.009],[5.663,8.015],[5.651,8.024],[5.647,8.041],[5.64,8.054],[5.643,8.059],[5.654,8.064],[5.66,8.07],[5.656,8.075],[5.625,8.073],[5.599,8.074],[5.577,8.071],[5.551,8.051],[5.545,8.044],[5.538,8.041],[5.516,8.022],[5.509,8.018],[5.506,8.019],[5.504,8.024],[5.507,8.037],[5.507,8.045],[5.514,8.084],[5.514,8.111],[5.498,8.111],[5.449,8.106],[5.398,8.104],[5.387,8.102],[5.371,8.096],[5.364,8.09],[5.361,8.083],[5.359,8.074],[5.359,8.063],[5.361,8.043],[5.361,8.039],[5.352,8.026],[5.332,8.01],[5.318,8.008],[5.283,8.008],[5.262,8.013],[5.257,8.018],[5.231,8.022],[5.203,8.017],[5.196,8.018],[5.192,8.022],[5.188,8.03],[5.182,8.036],[5.142,8.062],[5.118,8.063],[5.084,8.024],[5.076,8.025],[5.072,8.031],[5.062,8.038],[5.058,8.039],[5.056,8.031],[5.053,8.023],[5.036,8.005],[5.033,7.997],[5.033,7.982],[5.031,7.977],[5.016,7.955],[5.001,7.946],[4.991,7.931],[4.95,7.903],[4.942,7.9],[4.937,7.889],[4.927,7.88],[4.924,7.874],[4.924,7.863],[4.916,7.857],[4.914,7.85],[4.911,7.85],[4.909,7.83],[4.916,7.822],[4.916,7.796],[4.914,7.783],[4.909,7.766],[4.904,7.757],[4.903,7.75],[4.893,7.73],[4.888,7.692],[4.881,7.668],[4.873,7.651],[4.864,7.623],[4.868,7.616],[4.883,7.611],[4.902,7.576],[4.918,7.53],[4.92,7.517],[4.939,7.479],[4.948,7.455],[4.952,7.448],[4.976,7.434],[4.985,7.426],[4.987,7.419],[4.997,7.415],[5.005,7.414],[5.009,7.426],[5.02,7.433],[5.049,7.457],[5.065,7.46],[5.078,7.459],[5.096,7.452],[5.127,7.446],[5.167,7.44],[5.181,7.441],[5.188,7.441],[5.192,7.437],[5.199,7.437],[5.217,7.434],[5.245,7.433],[5.265,7.438],[5.28,7.436],[5.294,7.437],[5.315,7.443],[5.32,7.441],[5.329,7.417],[5.34,7.397],[5.347,7.381],[5.354,7.345],[5.355,7.334],[5.354,7.31],[5.358,7.296],[5.388,7.283],[5.405,7.29],[5.413,7.29],[5.458,7.302],[5.473,7.302],[5.481,7.305],[5.504,7.316],[5.521,7.333],[5.533,7.354],[5.537,7.358],[5.547,7.374],[5.552,7.38],[5.575,7.418],[5.588,7.432],[5.599,7.45],[5.607,7.48],[5.61,7.484],[5.614,7.529],[5.613,7.537],[5.618,7.564],[5.625,7.582],[5.643,7.612],[5.655,7.629],[5.659,7.629],[5.676,7.624],[5.681,7.624],[5.689,7.632],[5.691,7.638],[5.695,7.672],[5.699,7.683],[5.716,7.701],[5.768,7.737],[5.773,7.747]]]}},{"type":"Feature","properties":{"shapeName":"Osun","shapeISO":"NG-OS","shapeID":"27671186B37873222803025","shapeGroup":"NGA","shapeType":"ADM1"},"geometry":{"type":"Polygon","coordinates":[[[4.61,7.031],[4.614,7.08],[4.635,7.113],[4.673,7.14],[4.672,7.148],[4.672,7.166],[4.703,7.162],[4.715,7.172],[4.726,7.197],[4.747,7.223],[4.742,7.24],[4.735,7.284],[4.755,7.361],[4.806,7.37],[4.861,7.378],[4.909,7.373],[4.943,7.37],[4.975,7.375],[5.006,7.392],[5.005,7.414],[4.987,7.419],[4.976,7.434],[4.948,7.455],[4.92,7.517],[4.902,7.576],[4.868,7.616],[4.873,7.651],[4.888,7.692],[4.903,7.75],[4.909,7.766],[4.916,7.796],[4.909,7.83],[4.914,7.85],[4.924,7.863],[4.927,7.88],[4.942,7.9],[4.991,7.931],[5.016,7.955],[5.033,7.982],[5.036,8.005],[5.056,8.031],[5.053,8.058],[5.044,8.07],[5.032,8.068],[5.021,8.059],[4.999,8.03],[4.983,8.032],[4.977,8.026],[4.972,8.024],[4.971,8.033],[4.967,8.047],[4.95,8.055],[4.927,8.08],[4.887,8.091],[4.854,8.096],[4.855,8.086],[4.843,8.062],[4.819,8.054],[4.805,8.064],[4.766,8.068],[4.735,8.063],[4.712,8.06],[4.7,8.049],[4.687,8.057],[4.674,8.046],[4.659,8.046],[4.637,8.054],[4.632,8.061],[4.629,8.075],[4.603,8.068],[4.569,8.055],[4.559,8.049],[4.563,8.009],[4.55,7.971],[4.522,7.956],[4.496,7.943],[4.45,7.938],[4.439,7.906],[4.429,7.889],[4.407,7.898],[4.397,7.897],[4.39,7.879],[4.371,7.849],[4.366,7.852],[4.36,7.883],[4.348,7.905],[4.328,7.935],[4.307,7.944],[4.286,7.966],[4.265,7.97],[4.236,7.956],[4.23,7.928],[4.216,7.922],[4.191,7.91],[4.201,7.879],[4.197,7.865],[4.174,7.861],[4.147,7.85],[4.099,7.864],[4.09,7.86],[4.076,7.825],[4.072,7.796],[4.071,7.76],[4.061,7.754],[4.074,7.736],[4.074,7.682],[4.053,7.675],[4.093,7.621],[4.122,7.61],[4.145,7.587],[4.147,7.572],[4.154,7.569],[4.155,7.509],[4.149,7.477],[4.134,7.465],[4.137,7.446],[4.135,7.406],[4.132,7.358],[4.123,7.352],[4.119,7.344],[4.12,7.335],[4.111,7.327],[4.126,7.312],[4.128,7.288],[4.126,7.27],[4.111,7.251],[4.105,7.237],[4.094,7.228],[4.085,7.204],[4.079,7.191],[4.073,7.167],[4.08,7.158],[4.083,7.149],[4.073,7.147],[4.073,7.136],[4.081,7.14],[4.088,7.138],[4.157,7.165],[4.169,7.174],[4.183,7.111],[4.19,7.07],[4.198,7.049],[4.219,7.047],[4.233,7.058],[4.268,7.088],[4.298,7.091],[4.369,7.059],[4.37,7.037],[4.379,7.026],[4.374,6.999],[4.386,6.99],[4.401,6.981],[4.425,7.002],[4.454,7.001],[4.48,6.991],[4.516,7.023],[4.534,7.024],[4.559,7.021],[4.592,7.029],[4.61,7.031]]]}},{"type":"Feature","properties":{"shapeName":"Bauchi","shapeISO":"NG-BA","shapeID":"27671186B7584771598694","shapeGroup":"NGA","shapeType":"ADM1"},"geometry":{"type":"Polygon","coordinates":[[[10.541,9.484],[10.957,9.669],[10.966,9.752],[10.958,9.834],[10.825,9.97],[10.716,10.095],[10.819,10.157],[10.847,10.286],[10.814,10.438],[10.701,10.487],[10.569,10.628],[10.506,10.718],[10.596,10.827],[10.675,10.939],[10.669,11.04],[10.853,11.085],[11.009,11.149],[10.928,11.284],[10.936,11.481],[10.927,11.61],[10.817,11.886],[10.807,11.947],[10.819,11.97],[10.82,11.994],[10.823,12.015],[10.795,12.185],[10.715,12.501],[10.593,12.52],[10.593,12.51],[10.581,12.477],[10.539,12.478],[10.411,12.459],[10.339,12.441],[10.227,12.369],[10.198,12.325],[10.199,12.313],[10.164,12.139],[10.169,12.052],[10.165,12.037],[10.139,12.023],[10.125,12.017],[10.106,12.016],[10.093,11.994],[10.077,11.992],[10.067,11.985],[10.048,11.981],[10.02,11.984],[9.963,11.954],[9.934,11.95],[9.892,11.935],[9.79,11.878],[9.732,11.858],[9.688,11.864],[9.67,11.784],[9.641,11.778],[9.629,11.759],[9.619,11.745],[9.632,11.739],[9.784,11.724],[9.826,11.627],[9.817,11.604],[9.788,11.505],[9.878,11.448],[9.888,11.381],[9.913,11.316],[9.999,11.265],[10.13,11.238],[10.213,11.227],[10.366,11.206],[10.334,11.118],[10.302,11.12],[10.258,11.083],[10.175,11.063],[10.185,10.986],[10.156,10.944],[10.046,10.966],[9.874,10.997],[9.889,11.094],[9.874,11.197],[9.811,11.278],[9.779,11.262],[9.743,11.249],[9.712,11.235],[9.686,11.223],[9.626,11.237],[9.609,11.315],[9.508,11.298],[9.464,11.282],[9.351,11.343],[9.324,11.341],[9.195,11.327],[9.142,11.316],[9.102,11.307],[9.056,11.291],[9.01,11.251],[8.983,11.221],[8.956,11.2],[8.921,11.172],[8.901,11.131],[8.825,11.096],[8.796,11.084],[8.784,10.974],[8.765,10.927],[8.786,10.797],[8.822,10.672],[8.776,10.496],[8.767,10.428],[8.798,10.399],[8.821,10.375],[8.942,10.333],[8.931,10.245],[8.974,10.138],[8.962,10.005],[9.007,10.033],[9.124,10.058],[9.23,10.048],[9.254,9.809],[9.15,9.748],[9.217,9.684],[9.285,9.636],[9.402,9.52],[9.587,9.544],[9.624,9.537],[9.683,9.526],[9.824,9.583],[9.981,9.623],[10.039,9.727],[10.096,9.724],[10.146,9.69],[10.267,9.681],[10.404,9.591],[10.5,9.528],[10.541,9.484]]]}},{"type":"Feature","properties":{"shapeName":"Niger","shapeISO":"NG-NI","shapeID":"27671186B79778155682183","shapeGroup":"NGA","shapeType":"ADM1"},"geometry":{"type":"Polygon","coordinates":[[[7.379,9.336],[7.219,9.493],[7.298,9.649],[7.252,9.794],[7.289,9.841],[7.286,9.95],[7.229,10.038],[7.167,10.033],[7.092,10.032],[6.926,10.068],[6.915,10.189],[6.982,10.244],[7.019,10.274],[6.997,10.356],[6.954,10.462],[6.913,10.538],[6.841,10.557],[6.76,10.645],[6.731,10.596],[6.556,10.547],[6.514,10.605],[6.457,10.594],[6.406,10.573],[6.37,10.528],[6.302,10.431],[6.254,10.427],[6.214,10.382],[6.173,10.359],[6.172,10.389],[6.175,10.442],[6.12,10.55],[6.115,10.607],[6.133,10.667],[6.116,10.694],[6.104,10.716],[6.113,10.76],[6.122,10.815],[6.154,10.855],[6.165,10.893],[6.248,10.949],[6.224,10.996],[6.046,11.054],[5.978,11.167],[5.826,11.093],[5.735,11.006],[5.575,10.965],[5.559,10.949],[5.531,10.978],[5.509,10.981],[5.391,11.064],[5.394,11.162],[5.372,11.27],[5.269,11.319],[5.062,11.209],[5.058,11.27],[5.012,11.252],[4.988,11.313],[4.939,11.364],[4.883,11.359],[4.852,11.35],[4.789,11.325],[4.712,11.297],[4.703,11.229],[4.765,11.137],[4.84,11.114],[4.992,11.07],[5.068,10.99],[5.029,10.859],[5.102,10.772],[5.061,10.74],[5.008,10.722],[4.951,10.694],[4.901,10.695],[4.844,10.7],[4.803,10.653],[4.833,10.488],[4.872,10.218],[4.65,10.199],[4.567,10.223],[4.483,10.329],[4.594,10.572],[4.607,10.584],[4.621,10.596],[4.637,10.615],[4.688,10.683],[4.692,10.745],[4.707,10.824],[4.695,10.919],[4.635,10.891],[4.609,10.889],[4.54,10.92],[4.302,10.949],[4.266,11.019],[3.998,11.018],[3.775,10.899],[3.836,10.71],[3.695,10.45],[3.684,10.171],[3.734,10.08],[3.784,10.031],[3.823,10.054],[3.887,10.004],[3.941,9.977],[3.961,9.937],[3.98,9.907],[4.039,9.865],[4.095,9.878],[4.171,9.82],[4.61,9.362],[4.752,9.199],[4.815,9.132],[4.911,9.171],[5.065,9.163],[5.272,9.015],[5.376,8.99],[5.512,8.944],[5.642,8.835],[5.887,8.747],[6.084,8.761],[6.247,8.739],[6.406,8.612],[6.58,8.331],[6.672,8.22],[6.727,8.252],[6.749,8.299],[6.811,8.352],[6.832,8.425],[6.792,8.84],[7.359,9.309],[7.379,9.336]]]}},{"type":"Feature","properties":{"shapeName":"Kaduna","shapeISO":"NG-KD","shapeID":"27671186B54051914323789","shapeGroup":"NGA","shapeType":"ADM1"},"geometry":{"type":"Polygon","coordinates":[[[7.724,9.329],[7.897,9.306],[8.078,9.246],[8.233,9.105],[8.328,9.181],[8.418,9.14],[8.504,9.001],[8.562,9.03],[8.567,9.061],[8.658,9.208],[8.691,9.34],[8.665,9.393],[8.608,9.464],[8.569,9.52],[8.57,9.64],[8.602,9.706],[8.643,9.811],[8.68,10.005],[8.713,10.23],[8.769,10.285],[8.818,10.38],[8.804,10.393],[8.782,10.424],[8.749,10.441],[8.774,10.514],[8.771,10.587],[8.666,10.593],[8.554,10.636],[8.507,10.656],[8.481,10.716],[8.559,10.785],[8.575,10.827],[8.568,10.907],[8.615,11.018],[8.559,11.1],[8.515,11.163],[8.467,11.168],[8.434,11.227],[8.325,11.227],[8.288,11.259],[8.261,11.276],[8.256,11.315],[8.167,11.354],[8.129,11.411],[8.162,11.506],[8.102,11.524],[8.062,11.501],[8.039,11.492],[7.998,11.489],[7.979,11.483],[7.945,11.464],[7.917,11.435],[7.893,11.424],[7.866,11.382],[7.819,11.372],[7.798,11.377],[7.769,11.379],[7.73,11.372],[7.717,11.322],[7.69,11.309],[7.658,11.293],[7.562,11.323],[7.506,11.356],[7.428,11.374],[7.365,11.29],[7.273,11.274],[7.215,11.27],[7.211,11.202],[7.152,11.129],[7.085,11.181],[7.025,11.21],[7.009,11.294],[7.006,11.362],[6.919,11.385],[6.833,11.337],[6.823,11.311],[6.767,11.297],[6.703,11.239],[6.699,11.114],[6.681,11.081],[6.662,11.055],[6.624,11.049],[6.585,11.024],[6.511,11.044],[6.426,11.013],[6.392,11.034],[6.354,11.022],[6.322,11.024],[6.313,11.01],[6.283,10.975],[6.254,10.955],[6.233,10.922],[6.164,10.86],[6.122,10.836],[6.114,10.805],[6.111,10.75],[6.104,10.716],[6.112,10.7],[6.141,10.673],[6.128,10.634],[6.13,10.578],[6.1,10.548],[6.162,10.41],[6.175,10.388],[6.173,10.359],[6.207,10.373],[6.236,10.385],[6.291,10.423],[6.324,10.454],[6.392,10.557],[6.424,10.577],[6.46,10.594],[6.514,10.605],[6.549,10.545],[6.71,10.588],[6.73,10.642],[6.829,10.625],[6.844,10.528],[6.927,10.517],[6.946,10.45],[6.997,10.356],[7.032,10.287],[6.987,10.237],[6.929,10.181],[6.885,10.151],[7.008,10.045],[7.104,10.032],[7.179,10.027],[7.229,10.038],[7.281,9.965],[7.295,9.853],[7.274,9.783],[7.205,9.758],[7.259,9.589],[7.221,9.375],[7.39,9.336],[7.667,9.401],[7.724,9.329]]]}},{"type":"Feature","properties":{"shapeName":"Enugu","shapeISO":"NG-EN","shapeID":"27671186B90910891533368","shapeGroup":"NGA","shapeType":"ADM1"},"geometry":{"type":"Polygon","coordinates":[[[6.861,6.753],[6.913,6.695],[6.923,6.699],[6.931,6.696],[6.939,6.703],[6.957,6.71],[7.017,6.706],[7.051,6.683],[7.09,6.677],[7.129,6.659],[7.132,6.643],[7.118,6.615],[7.109,6.593],[7.084,6.562],[7.063,6.555],[7.048,6.527],[7.046,6.501],[7.045,6.471],[7.033,6.467],[7.039,6.44],[7.064,6.428],[7.089,6.426],[7.115,6.401],[7.144,6.388],[7.142,6.36],[7.159,6.323],[7.16,6.303],[7.143,6.289],[7.147,6.256],[7.145,6.25],[7.142,6.244],[7.145,6.236],[7.151,6.23],[7.189,6.239],[7.203,6.218],[7.209,6.202],[7.225,6.179],[7.224,6.143],[7.24,6.114],[7.25,6.106],[7.261,6.079],[7.309,6.079],[7.304,6.071],[7.297,6.056],[7.3,6.048],[7.339,6.042],[7.387,6.037],[7.416,6.006],[7.452,6.014],[7.476,6.012],[7.52,6.02],[7.53,6.006],[7.573,5.969],[7.679,5.929],[7.705,5.929],[7.711,5.971],[7.676,6.01],[7.664,6.047],[7.686,6.071],[7.714,6.084],[7.729,6.2],[7.709,6.278],[7.721,6.331],[7.751,6.386],[7.742,6.494],[7.704,6.578],[7.688,6.629],[7.72,6.647],[7.776,6.634],[7.818,6.638],[7.814,6.65],[7.856,6.7],[7.875,6.741],[7.888,6.767],[7.903,6.781],[7.89,6.785],[7.89,6.844],[7.876,6.863],[7.864,6.88],[7.834,6.886],[7.792,6.889],[7.763,6.88],[7.738,6.87],[7.714,6.871],[7.692,6.852],[7.658,6.868],[7.62,6.919],[7.571,6.94],[7.557,6.978],[7.538,7.02],[7.526,7.036],[7.491,7.074],[7.47,7.087],[7.465,7.089],[7.442,7.096],[7.432,7.102],[7.387,7.086],[7.385,7.052],[7.327,7.024],[7.293,6.994],[7.241,6.971],[7.239,6.941],[7.218,6.925],[7.21,6.904],[7.176,6.896],[7.156,6.883],[7.134,6.855],[7.113,6.837],[7.093,6.819],[7.06,6.795],[7.042,6.783],[7.021,6.789],[6.991,6.785],[6.985,6.799],[6.99,6.833],[6.978,6.85],[6.952,6.828],[6.945,6.799],[6.925,6.793],[6.912,6.801],[6.878,6.761],[6.861,6.753]]]}},{"type":"Feature","properties":{"shapeName":"Taraba","shapeISO":"NG-TA","shapeID":"27671186B83252759475924","shapeGroup":"NGA","shapeType":"ADM1"},"geometry":{"type":"Polygon","coordinates":[[[9.598,6.5],[9.786,6.778],[10.176,7.007],[10.195,6.918],[10.238,6.878],[10.615,7.069],[10.683,7.02],[10.7,7.013],[10.733,6.992],[10.747,6.969],[10.77,6.962],[10.798,6.963],[10.849,6.948],[10.882,6.867],[10.939,6.78],[11.014,6.781],[11.078,6.707],[11.06,6.643],[11.085,6.541],[11.124,6.438],[11.202,6.437],[11.385,6.457],[11.445,6.597],[11.511,6.602],[11.589,6.759],[11.555,6.821],[11.638,6.944],[11.864,7.085],[11.761,7.256],[11.75,7.271],[11.799,7.297],[11.786,7.471],[11.765,7.569],[11.766,7.615],[11.758,7.725],[11.633,7.75],[11.646,7.817],[11.632,7.867],[11.563,7.906],[11.517,7.825],[11.49,7.8],[11.444,7.854],[11.366,7.976],[11.351,8.012],[11.354,8.027],[11.346,8.042],[11.372,8.071],[11.434,8.132],[11.523,8.215],[11.578,8.304],[11.613,8.404],[11.662,8.45],[11.699,8.469],[11.766,8.504],[11.795,8.546],[11.76,8.607],[11.789,8.641],[11.752,8.673],[11.785,8.711],[11.841,8.845],[11.85,8.875],[11.862,8.915],[11.844,8.979],[11.768,9.034],[11.716,9.068],[11.695,9.133],[11.684,9.193],[11.687,9.23],[11.648,9.305],[11.593,9.304],[11.53,9.343],[11.526,9.381],[11.526,9.408],[11.484,9.464],[11.44,9.494],[11.43,9.55],[11.278,9.548],[11.227,9.569],[11.151,9.551],[11.076,9.551],[11.008,9.552],[10.969,9.615],[10.618,9.463],[10.579,9.439],[10.564,9.396],[10.567,9.373],[10.568,9.344],[10.581,9.313],[10.588,9.238],[10.6,9.201],[10.61,9.176],[10.626,9.138],[10.633,9.111],[10.64,9.073],[10.63,9.031],[10.597,8.976],[10.539,8.97],[10.498,8.965],[10.427,8.948],[10.369,8.902],[10.305,8.845],[10.267,8.819],[10.236,8.792],[10.18,8.732],[10.116,8.673],[10.066,8.613],[9.998,8.541],[9.891,8.448],[9.809,8.397],[9.765,8.374],[9.707,8.375],[9.668,8.381],[9.646,8.381],[9.617,8.372],[9.615,8.295],[9.518,8.302],[9.42,8.332],[9.357,8.327],[9.323,8.253],[9.382,8.206],[9.406,8.165],[9.392,8.133],[9.414,8.071],[9.336,7.986],[9.179,7.908],[9.172,7.887],[9.124,7.827],[9.19,7.81],[9.387,7.845],[9.643,7.8],[9.809,7.606],[9.885,7.508],[9.856,7.325],[9.829,7.236],[9.762,7.101],[9.646,6.895],[9.636,6.713],[9.598,6.5]]]}},{"type":"Feature","properties":{"shapeName":"Ebonyi","shapeISO":"NG-EB","shapeID":"27671186B90886723034258","shapeGroup":"NGA","shapeType":"ADM1"},"geometry":{"type":"Polygon","coordinates":[[[8.295,6.679],[8.28,6.705],[8.28,6.715],[8.274,6.717],[8.252,6.736],[8.266,6.742],[8.25,6.768],[8.241,6.792],[8.229,6.8],[8.22,6.779],[8.192,6.778],[8.153,6.755],[8.144,6.725],[8.128,6.712],[8.104,6.712],[8.089,6.712],[8.032,6.732],[8.009,6.725],[7.974,6.711],[7.979,6.667],[7.987,6.633],[7.987,6.611],[7.959,6.591],[7.954,6.552],[7.945,6.54],[7.9,6.556],[7.856,6.581],[7.844,6.608],[7.832,6.638],[7.818,6.638],[7.776,6.634],[7.72,6.647],[7.688,6.629],[7.704,6.578],[7.742,6.494],[7.751,6.386],[7.721,6.331],[7.709,6.278],[7.729,6.2],[7.714,6.084],[7.686,6.071],[7.664,6.047],[7.676,6.01],[7.711,5.971],[7.705,5.929],[7.679,5.929],[7.573,5.969],[7.53,6.006],[7.524,5.988],[7.529,5.952],[7.503,5.9],[7.527,5.869],[7.527,5.844],[7.552,5.843],[7.571,5.841],[7.707,5.821],[7.769,5.814],[7.786,5.805],[7.797,5.762],[7.823,5.74],[7.841,5.724],[7.863,5.708],[7.871,5.694],[7.89,5.685],[7.887,5.7],[7.912,5.725],[7.922,5.76],[7.942,5.77],[7.97,5.768],[7.932,5.822],[7.937,5.836],[7.955,5.841],[7.962,5.85],[7.969,5.874],[7.989,5.893],[7.989,5.902],[8.001,5.895],[8.006,5.904],[7.986,5.922],[7.982,5.936],[7.988,5.948],[7.979,5.97],[7.986,5.982],[8.041,5.998],[8.052,5.99],[8.049,5.974],[8.05,5.951],[8.073,5.946],[8.106,5.959],[8.114,5.938],[8.168,5.97],[8.204,6.004],[8.223,6.014],[8.245,6.018],[8.254,6.005],[8.264,5.997],[8.282,6.005],[8.289,6.046],[8.298,6.068],[8.302,6.102],[8.315,6.116],[8.331,6.135],[8.359,6.171],[8.371,6.197],[8.405,6.237],[8.418,6.261],[8.411,6.282],[8.392,6.307],[8.404,6.366],[8.431,6.381],[8.442,6.403],[8.454,6.406],[8.457,6.418],[8.444,6.431],[8.432,6.433],[8.439,6.447],[8.423,6.478],[8.406,6.485],[8.412,6.5],[8.419,6.515],[8.41,6.517],[8.391,6.523],[8.394,6.531],[8.4,6.536],[8.391,6.55],[8.375,6.546],[8.374,6.564],[8.359,6.564],[8.34,6.575],[8.325,6.589],[8.314,6.607],[8.321,6.614],[8.324,6.621],[8.322,6.634],[8.309,6.639],[8.307,6.661],[8.295,6.679]]]}}]}